{
"type": "FeatureCollection",
"name": "entanglement_sources",
"crs": { "type": "name", "properties": { "name": "urn:ogc:def:crs:OGC:1.3:CRS84" } },
"features": [
{ "type": "Feature", "properties": { "source_place": "La Esperanza", "source_country": "Mexico", "source_lat": 20.648545935128908, "source_lon": -100.10898477490311, "target_key": "MICROSOFT", "empire_frame": "Silicon Valley / US tech", "evidence_summary": "Microsoft builds a massive data center complex in La Esperanza as the rural community faces water outages and doubts they will directly benefit from the data centers.", "body_type": "copper", "extraction_type": "data_center","source_url": "https://english.elpais.com/technology/2025-08-17/ais-backyard-a-map-of-the-21st-century-gold-rush.html", "year": 2025, "image_url": "https://ep01.epimg.net/estaticos/arc/2025/07/el-patio-trasero-de-la-ia/img/documentos/11.jpg" }, "geometry": { "type": "Point", "coordinates": [ -100.108984774903107, 20.648545935128908 ] } },
{ "type": "Feature", "properties": { "source_place": "Ceará", "source_country": "Brazil", "source_lat": -4.7917879230537261, "source_lon": -39.464512090150848, "target_key": "BYTEDANCE", "empire_frame": "China tech", "evidence_summary": "The Anacé Indigenous community is going to court to stop a planned TikTok data center they say is being built on their land.", "body_type": "water", "source_url": "https://restofworld.org/2025/brazil-indigenous-group-sues-tiktok-data-center/", "year": 2025 }, "geometry": { "type": "Point", "coordinates": [ -39.464512090150848, -4.791787923053726 ] } },
{ "type": "Feature", "properties": { "source_place": "Quilicura", "source_country": "Chile", "source_lat": -33.35908071163842, "source_lon": -70.72940030449206, "target_key": "MICROSOFT", "empire_frame": "Silicon Valley / US tech", "evidence_summary": "Microsoft had received government clearance in 2023 for a $317-million data center in Quilicura. The company claimed its data center would have a cooling system that would eliminate the need to use water for more than half the year. In documents submitted to authorities, however, Vallejos found that Microsoft’s cooling system would rely partially on groundwater in an already water-stressed area.", "body_type": "water", "source_url": "https://restofworld.org/2026/ai-pushback-chile-mexico-kenya-philippines/", "year": null }, "geometry": { "type": "Point", "coordinates": [ -70.72940030449206, -33.35908071163842 ] } },
{ "type": "Feature", "properties": { "source_place": "Nairobi", "source_country": "Kenya", "source_lat": -1.2937665993875402, "source_lon": 36.82208838478418, "target_key": "CLOUDFACTORY", "empire_frame": null, "evidence_summary": "In eight years of working data annotation jobs at different companies, Kinyua experienced low pay, exploitative conditions, a lack of labor protections, and gender and class biases, she said. That led her to set up the Data Labelers Association with nine others last year, to push for ethical labor standards, and for the invisible workforce powering AI to be recognized, respected, and protected, she said. DLA advocates for fair pay, transparency, and accountability from companies and the government.", "body_type": "labor", "extraction_type": "data_labor", "source_url": "https://restofworld.org/2026/ai-pushback-chile-mexico-kenya-philippines/", "year": 2026 }, "geometry": { "type": "Point", "coordinates": [ 36.82208838478418, -1.29376659938754 ] } },
{ "type": "Feature", "properties": { "source_place": "Tucson, Arizona", "source_country": "USA", "source_lat": 32.241034323555468, "source_lon": -110.96826853718642, "target_key": "STARGATE", "empire_frame": "Silicon Valley / US tech", "evidence_summary": "The Earth Island Institute writes about resistance in Tucson, Arizona, where a proposal for “Project Blue,” put forth by Beale Infrastructure, would take millions of gallons of drinking water from the desert for cooling purposes. Residents consistently attended town board meetings and wrote numerous emails and op-eds in local newspapers. “I feel like I learned more about Project Blue from the public than the city,” said city councilman Rocque Perez, revealing how concerned citizens take it upon themselves to communicate with each other and fill local news deserts. The Guardian reported that “on 6 August, in an unscheduled vote, council members unanimously decided to discontinue discussions with Beale, each sharing short speeches revealing sharp opposition to Project Blue. Tucsonans packing the council chambers cheered and celebrated; Beale executives, appearing stunned, were booed as they left.” Project Blue no longer.", "body_type": "water", "source_url": "https://www.projectcensored.org/communities-against-ai-data-center/", "year": 2026 }, "geometry": { "type": "Point", "coordinates": [ -110.968268537186418, 32.241034323555468 ] } },
{ "type": "Feature", "properties": { "source_place": "Lansing New York", "source_country": "USA", "source_lat": 42.485619970560009, "source_lon": -76.48451248136972, "target_key": "TERAWULF", "empire_frame": "US tech", "evidence_summary": "Terawulf, a Maryland-based technology company, has proposed converting an old coal power plant on Cayuga Lake in Lansing, New York, into a large-scale AI data center. ... Critics of the data center have shown up at Lansing town board meetings, citing environmental concerns, including noise pollution and the proposed use of Cayuga Lake water for cooling. Much of the investigative reporting on the proposed data center has been conducted by local outlets, such as the Ithaca Voice and Ithaca Times, and other independent investigative organizations.", "body_type": "water", "source_url": "https://www.projectcensored.org/communities-against-ai-data-center/", "year": "2026" }, "geometry": { "type": "Point", "coordinates": [ -76.48451248136972, 42.485619970560009 ] } },
{ "type": "Feature", "properties": { "source_place": "Boxtown, Tennessee", "source_country": "USA", "source_lat": 35.047482905781763, "source_lon": -90.124302573915514, "target_key": "xAI", "empire_frame": "Silicon Valley / US tech", "evidence_summary": "Environmentalists and community activists say this is no coincidence. Boxtown, a predominantly Black community with a median income of $37,000, sits a few miles from where Musk, driven by ambitions of creating an AI smarter than humans, set up the self-proclaimed biggest supercomputer in the world last year.  ... But all of those computers need a vast amount of energy to run. Fueling them has been 35 unpermitted temporary gas turbines, which have been pumping out a level of emissions that, according to environmentalists, is exacerbating the health issues of an area already crushed by decades of pollution.", "body_type": "gas", "source_url": "https://time.com/7308925/elon-musk-memphis-ai-data-center/", "year": "2025" }, "geometry": { "type": "Point", "coordinates": [ -90.124302573915514, 35.047482905781763 ] } },
{ "type": "Feature", "properties": { "source_place": "Zarazoga", "source_country": "Spain", "source_lat": 41.653760476606841, "source_lon": -0.88798146111879928, "target_key": "AMAZON", "empire_frame": "Silicon Valley / US tech", "evidence_summary": "While the likes of Amazon promise more than €15 billion of investment, jobs, partnerships with local schools, community education programs, water infrastructure updates and 'sustainability initiatives,' grassroots groups are springing up, wary of tech giants muscling in on their water resources. ... “In the end the farmer never wins,” said ‍Chechu Sánchez, an Aragonese farmer speaking at an event on data centers in Zaragoza, Aragon’s capital. “Whenever there is plunder by foreign capital, the farmer, the people of the municipalities — we never win, we don’t benefit at all.” ... Activist Aurora Gómez and her collective Tu Nube Seca Mi Río (which translates as “your cloud is drying up my river”) is heading up a campaign for a moratorium on all new data centers in Spain. Farmers, Europe’s most prolific water users, are among the most vulnerable, said Gómez, and — when they find out about the data centers’ water usage — the most incensed.", "body_type": "water", "source_url": "https://www.politico.eu/article/artificial-intelligence-threat-raid-water-reserves-europe-dry-regions/", "year": 2026 }, "geometry": { "type": "Point", "coordinates": [ -0.887981461118799, 41.653760476606841 ] } },
{ "type": "Feature", "properties": { "source_place": "Ancash", "source_country": " Peru", "source_lat": -17.188173474952091, "source_lon": -70.931556701401533, "target_key": "AURUBIS", "empire_frame": "Europe Metal", "evidence_summary": "These expansion plans willingly disregard how copper mining results in severe environmental and social harms, including contamination, crop failures and cancers. Such impacts have led communities affected by copper mining in Peru to take legal action against a German metals company. In November 2025, community members from the Moquegua and Ancash regions of Peru, with support from Misereor and Red Muqui, filed a claim against Aurubis in the German courts, accusing the company of failures in conducting due diligence on its supply chain. The harms associated with the copper extracted from their territories include water contamination and widespread health problems due to metals poisoning. Anglo American and Glencore are currently operating with impunity at the beginning of this toxic chain.", "body_type": "copper","extraction_type":"mining", "source_url": "https://londonminingnetwork.org/2026/03/states-are-clamouring-for-copper-what-does-this-mean-for-communities-on-the-frontlines-of-copper-mines/", "year": 2026 }, "geometry": { "type": "Point", "coordinates": [ -70.931556701401533, -17.188173474952091 ] } },
{ "type": "Feature", "properties": { "source_place": "Visakhapatnam", "source_country": " India", "source_lat": 17.734395519838074, "source_lon": 83.309411863246908, "target_key": "GOOGLE", "empire_frame": "Silicon Valley / US tech", "evidence_summary": "Work to build Google's planned Indian data centre hub is in full swing, with a ​hillside above the site stripped to red earth and terraced into steps, but mounting opposition from environmentalists is creating hurdles for the U.S. tech ‌giant's $15 billion project. ... The southern state of Andhra Pradesh, governed by an ally of Prime Minister Narendra Modi who has hailed the project as historic and transformational, has denied allegations that the project was fast-tracked without weighing risks to water supplies and wildlife.", "body_type": "water", "source_url": "https://www.reuters.com/world/asia-pacific/googles-15-billion-india-data-centre-project-battles-water-wildlife-concerns-2026-08-06/", "year": 2026 }, "geometry": { "type": "Point", "coordinates": [ 83.309411863246908, 17.734395519838074 ] } },
{ "type": "Feature", "properties": { "source_place": "Sturgeon County, Alberta", "source_country": " Canada", "source_lat": 53.725135388664661, "source_lon": -113.69392361511744, "target_key": "META", "empire_frame": " Silicon Valley / US Tech", "evidence_summary": " water", "body_type": "In July, Alberta announced that the tech giant Meta is building a massive facility in Sturgeon County, north of Edmonton. The government has also said other AI data centres are in the works. Meta’s facility is set to be online in the next two to three years. ... Protesters said the community wasn’t consulted on the Meta centre, and that the government hasn’t been transparent about the others planned for the province. ... They also expressed concerns that Meta’s operation will increase their water and utility bills and create noise because these facilities use a lot of electricity and water to both power and cool hardware. Some were against the use of artificial intelligence altogether.", "source_url": "https://www.cbc.ca/news/canada/edmonton/alberta-data-centres-town-halls-protests-9.7304101", "year": 2026 }, "geometry": { "type": "Point", "coordinates": [ -113.693923615117441, 53.725135388664661 ] } },
{ "type": "Feature", "properties": { "source_place": "Amsterdam", "source_country": "Netherlands", "source_lat": 52.376256476946679, "source_lon": 4.8957969676833519, "target_key": "MICROSOFT", "empire_frame": " Silicon Valley / US Tech", "evidence_summary": "electricity", "body_type": "More than 500 people have joined a campaign to stop a huge data centre being built in Amsterdam-Zuid, arguing that it will bring “zero benefits to the area”. ... The Dutch government has introduced restrictions on the size of data centres in recent years following criticism from provincial and municipal governments about the strain on the electricity network. Data centres accounted for 4.6% of all electricity use in the Netherlands in 2024.", "source_url": "https://www.dutchnews.nl/2026/08/campaigners-call-for-amsterdam-to-pull-plug-on-giant-data-centre/", "year": 2026 }, "geometry": { "type": "Point", "coordinates": [ 4.895796967683352, 52.376256476946679 ] } },
{ "type": "Feature", "properties": { "source_place": "Cape Town", "source_country": " South Africa", "source_lat": -33.935879748013456, "source_lon": 18.426592329947763, "target_key": "EQUINIX", "empire_frame": "US Tech", "evidence_summary": "Social movements are protesting the City of Cape Town’s recent approval of a proposal by Equinix, a U.S. digital infrastructure giant, to build two new data centre facilities in the city. ...The proposed development formed part of plans for a 174MW facility on land owned by the King David Golf Club, which could use approximately 12.05 million litres of water per day.", "body_type": "https://mybroadband.co.za/news/technology/658479-battle-over-data-centres-that-will-use-12-million-litres-of-water-per-day-in-south-africa.html", "source_url": "2026", "year": null }, "geometry": { "type": "Point", "coordinates": [ 18.426592329947763, -33.935879748013456 ] } }
]
}
