{
"type": "FeatureCollection",
"name": "eastern_telegraph_co_cables",
"crs": { "type": "name", "properties": { "name": "urn:ogc:def:crs:OGC:1.3:CRS84" } },
"features": [
{ "type": "Feature", "properties": { "id": null, "route_name": null, "year": null, "company": null }, "geometry": { "type": "MultiLineString", "coordinates": [ [ [ -58.190557261693449, 47.114662501440691 ], [ -55.178346524672577, 49.042973387750095 ], [ -51.789609445524107, 50.740729440859383 ], [ -47.647819682120421, 52.760505384191561 ], [ -44.761117725808745, 53.662414192706684 ], [ -40.619327962405059, 54.472559899736247 ], [ -35.473467953327741, 55.480922405368872 ], [ -31.331678189924052, 55.764390337043714 ], [ -26.56234452297435, 55.905356555586913 ], [ -22.169537198152256, 55.480922405368872 ], [ -19.031817680422183, 55.195400590952943 ], [ -15.517571820564507, 54.618164506492228 ], [ -12.254343522125231, 53.810890257744632 ], [ -9.242132785104365, 52.760505384191561 ] ] ] } },
{ "type": "Feature", "properties": { "id": null, "route_name": null, "year": null, "company": null }, "geometry": { "type": "MultiLineString", "coordinates": [ [ [ -56.238788772103618, 47.965735710686516 ], [ -50.824508211125107, 50.378575262846347 ], [ -45.246158542238135, 52.073664204136364 ], [ -40.570188966847603, 53.120017305835745 ], [ -36.140323053319712, 53.852174495977778 ], [ -31.136215262112295, 54.237504985848908 ], [ -27.44466033417239, 54.381084009064658 ], [ -24.655485499728908, 54.381084009064658 ], [ -21.70224155737699, 54.333279983298084 ], [ -18.913066722933511, 53.900536298853453 ], [ -15.467615456856269, 53.316495668205462 ], [ -12.10419874473325, 52.873150503771818 ], [ -9.150954802381328, 52.274898349014997 ] ] ] } },
{ "type": "Feature", "properties": { "id": null, "route_name": null, "year": null, "company": null }, "geometry": { "type": "MultiLineString", "coordinates": [ [ [ -57.305237973508483, 47.413530418155567 ], [ -47.543126052956296, 50.639426615476658 ], [ -42.456983707794656, 51.871518922319268 ], [ -36.140323053319712, 53.021439933630532 ], [ -30.726042492341197, 53.316495668205462 ], [ -25.721934701133772, 53.609525691448162 ], [ -20.963930571789014, 53.316495668205462 ], [ -16.205926442444245, 52.873150503771818 ], [ -9.643162126106647, 52.375174254783374 ] ] ] } },
{ "type": "Feature", "properties": { "id": null, "route_name": null, "year": null, "company": null }, "geometry": { "type": "MultiLineString", "coordinates": [ [ [ -56.648961541874719, 47.690363917227835 ], [ -42.621052815703102, 50.847070899649665 ], [ -37.206772254724576, 51.566589133177956 ], [ -32.366733571425598, 51.820840048635262 ], [ -26.542280240675975, 52.575044772747262 ], [ -21.538172449468547, 52.575044772747262 ], [ -15.795753672673149, 52.425227006600814 ], [ -9.971300341923525, 52.274898349014997 ] ] ] } },
{ "type": "Feature", "properties": { "id": null, "route_name": null, "year": null, "company": null }, "geometry": { "type": "MultiLineString", "coordinates": [ [ [ -56.648961541874719, 47.690363917227835 ], [ -45.57429675805502, 49.052635526181263 ], [ -40.406119858939157, 49.534146258667199 ], [ -35.15590840586907, 50.221372269565329 ], [ -29.741627844890559, 50.535258998480415 ], [ -20.635792355972129, 51.617553603247927 ], [ -17.272375643849109, 51.770104104250613 ], [ -9.561127572152424, 52.425227006600814 ] ] ] } },
{ "type": "Feature", "properties": { "id": null, "route_name": null, "year": null, "company": null }, "geometry": { "type": "MultiLineString", "coordinates": [ [ [ -56.648961541874719, 47.469014116865388 ], [ -54.516063139064997, 48.075475457742584 ], [ -42.94919103151998, 48.075475457742584 ], [ -38.109152348221002, 48.184981647699281 ], [ -34.253528312372659, 48.457725960708345 ], [ -30.726042492341197, 48.944994002839969 ], [ -26.378211132767529, 49.534146258667199 ], [ -23.096828974598729, 50.32623198701166 ], [ -19.241204938750386, 51.002200200506451 ], [ -14.237097147542965, 51.972705556102525 ], [ -10.463507665648846, 52.325064710943849 ], [ -9.725196680060867, 52.325064710943849 ] ] ] } },
{ "type": "Feature", "properties": { "id": null, "route_name": null, "year": null, "company": null }, "geometry": { "type": "MultiLineString", "coordinates": [ [ [ -59.684240038180853, 45.893323676647931 ], [ -56.40285788001205, 47.800687964264895 ] ] ] } },
{ "type": "Feature", "properties": { "id": null, "route_name": null, "year": null, "company": null }, "geometry": { "type": "MultiLineString", "coordinates": [ [ [ -59.438136376318205, 46.007397803955222 ], [ -57.387272527462699, 47.690363917227835 ] ] ] } },
{ "type": "Feature", "properties": { "id": null, "route_name": null, "year": null, "company": null }, "geometry": { "type": "MultiLineString", "coordinates": [ [ [ -59.520170930272407, 45.721772235951462 ], [ -56.730996095828942, 45.203947385557868 ], [ -54.105890369293888, 45.146117679800753 ], [ -51.644853750667302, 45.146117679800753 ], [ -48.609575254361161, 45.893323676647931 ], [ -46.14853863573456, 46.630610108392482 ], [ -42.621052815703102, 47.855762311828911 ], [ -38.847463333808982, 48.944994002839969 ], [ -35.402012067731732, 49.640510285881085 ], [ -32.448768125379807, 49.905406389997857 ], [ -27.034487564401292, 50.535258998480415 ], [ -23.260898082507175, 50.898838146188211 ], [ -19.979515924338372, 51.105332482403867 ], [ -18.584928507116626, 51.25960047067386 ], [ -15.795753672673149, 51.820840048635262 ], [ -12.022164190779026, 52.224675143074194 ], [ -9.889265787969308, 52.174395067344065 ] ] ] } },
{ "type": "Feature", "properties": { "id": null, "route_name": null, "year": null, "company": null }, "geometry": { "type": "MultiLineString", "coordinates": [ [ [ -59.320025400426701, 45.666801841112729 ], [ -51.509602114638966, 45.484567592961973 ], [ -45.087698524102358, 46.209956984681327 ], [ -41.442834324068087, 46.807225054529887 ], [ -37.971535085940197, 46.985126087936635 ], [ -33.111716152561144, 47.456644748522955 ], [ -28.859374585854479, 48.15606720247375 ], [ -24.433468057241424, 49.074003296938315 ], [ -19.660431604815575, 49.975285657758775 ], [ -15.842002442874898, 50.969426019946916 ], [ -14.106352823810953, 51.187511757371588 ], [ -12.544268166653403, 51.996199866655708 ], [ -11.155748471402248, 52.315652042653603 ] ] ] } },
{ "type": "Feature", "properties": { "id": null, "route_name": null, "year": null, "company": null }, "geometry": { "type": "MultiLineString", "coordinates": [ [ [ -58.538983071847937, 45.362749535444912 ], [ -54.460206467047662, 44.934316191076022 ], [ -52.377426924170926, 44.378741477744782 ], [ -47.691172952698288, 44.934316191076022 ], [ -44.48022115742998, 45.362749535444912 ], [ -41.963529209787261, 46.089715618410814 ], [ -39.360054781191359, 46.628733700549979 ], [ -36.930145314501829, 46.747793539074145 ], [ -33.198498633514347, 47.103398940062419 ], [ -29.032939547760872, 48.271722435021061 ], [ -26.342682638211766, 48.788940741891238 ], [ -23.044948361990272, 49.300882181576355 ], [ -19.400084161955981, 49.975285657758775 ], [ -17.143739657172858, 50.474969065419089 ], [ -14.80061267143653, 50.585299437083854 ], [ -13.585657938091769, 50.695371901091228 ], [ -12.891398090466193, 51.187511757371588 ], [ -11.936790799981022, 51.835613262557558 ], [ -10.548271104729867, 52.315652042653603 ], [ -10.027576219010685, 52.315652042653603 ] ] ] } },
{ "type": "Feature", "properties": { "id": null, "route_name": null, "year": null, "company": null }, "geometry": { "type": "MultiLineString", "coordinates": [ [ [ -59.406807881379905, 45.484567592961973 ], [ -55.675161200392431, 45.057054324161257 ], [ -52.550991886077327, 44.316682389034476 ], [ -50.294647381294205, 44.192367105001345 ], [ -46.129088295540718, 44.440734859824801 ], [ -42.137094171693661, 44.811315170646886 ], [ -38.579012452612574, 45.484567592961973 ], [ -35.801973062110257, 46.209956984681327 ], [ -33.198498633514347, 46.449651805143446 ], [ -29.206504509667273, 46.985126087936635 ], [ -24.34668557628823, 47.573869388383194 ], [ -21.916776109598707, 47.982094390628866 ], [ -18.705824314330403, 48.271722435021061 ], [ -16.362697328594084, 48.387116491986674 ], [ -14.279917785717348, 48.617121574262249 ], [ -10.548271104729867, 49.130820559263455 ], [ -7.858014195180753, 49.300882181576355 ], [ -4.994192323725245, 49.470358959777244 ] ] ] } },
{ "type": "Feature", "properties": { "id": null, "route_name": null, "year": null, "company": null }, "geometry": { "type": "MultiLineString", "coordinates": [ [ [ -67.043666205261275, 48.213927473214405 ], [ -65.047669143337728, 46.747793539074145 ], [ -63.398802005226969, 45.908860997859655 ], [ -62.357412233788615, 45.362749535444912 ], [ -61.576369905209845, 44.688051267887431 ], [ -57.237245857549965, 44.192367105001345 ], [ -55.24124879562644, 45.057054324161257 ], [ -54.113076543234882, 46.569105361394541 ], [ -53.852729100375285, 47.690832200471881 ], [ -54.460206467047662, 48.559718142893999 ] ] ] } },
{ "type": "Feature", "properties": { "id": null, "route_name": null, "year": null, "company": null }, "geometry": { "type": "MultiLineString", "coordinates": [ [ [ -55.32803127657963, 44.995718118660498 ], [ -55.067683833720054, 43.629696927186984 ], [ -54.286641505141269, 42.680100162187735 ], [ -52.030297000358146, 40.933719362558477 ], [ -50.121082419387804, 40.341034572699598 ], [ -48.038302876511082, 40.999248216997678 ], [ -44.653786119336374, 41.974360204746475 ], [ -39.620402224050949, 43.566849701740978 ], [ -35.888755543063454, 44.378741477744782 ], [ -32.504238785888766, 45.484567592961973 ], [ -27.817984814416114, 46.149869136122057 ], [ -23.392078285803052, 46.747793539074145 ], [ -20.181126490534762, 47.280316656474348 ], [ -18.09834694765803, 47.280316656474348 ], [ -15.842002442874898, 47.397934213539337 ], [ -12.197138242840614, 48.040150675532189 ], [ -9.680446295197893, 48.329452102870199 ], [ -6.469494499929596, 48.387116491986674 ], [ -4.733844880865653, 48.559718142893999 ], [ -3.866020071333681, 48.67445980671426 ] ] ] } },
{ "type": "Feature", "properties": { "id": null, "route_name": null, "year": null, "company": null }, "geometry": { "type": "MultiLineString", "coordinates": [ [ [ -55.935508643252014, 44.440734859824801 ], [ -55.501596238486023, 42.743865555342666 ], [ -54.894118871813653, 41.456126759422816 ], [ -53.765946619422081, 40.539180715737295 ], [ -52.203861962264547, 39.743096737135041 ], [ -50.641777305106984, 39.274414404011914 ], [ -48.211867838417461, 39.475665341094818 ], [ -45.261263486008765, 40.407148174317811 ], [ -43.178483943132022, 41.325915846334595 ], [ -41.52961680502127, 41.78051238178022 ], [ -39.446837262144548, 42.296132594576122 ], [ -37.364057719267812, 42.807565430121009 ], [ -33.719193519233535, 43.566849701740978 ], [ -30.595024204918424, 44.130110917099167 ], [ -27.817984814416114, 44.688051267887431 ], [ -24.607033019147813, 45.301741932421457 ], [ -21.569646185785913, 46.029496426154836 ], [ -20.441473933394352, 46.269979169764497 ], [ -18.35869439051762, 46.329935697329653 ], [ -15.408090038108913, 46.985126087936635 ], [ -12.717833128559798, 46.9258913200987 ], [ -10.548271104729867, 47.339158186568277 ], [ -8.465491561853135, 47.456644748522955 ], [ -6.295929538023203, 48.15606720247375 ], [ -3.692455109427285, 48.387116491986674 ], [ -3.084977742754905, 48.960173577995384 ], [ -1.783240528456947, 49.863533413676535 ], [ 0.559886457279378, 50.859997453373673 ], [ 1.688058709670942, 51.241872637643233 ], [ 3.684055771594478, 52.738028382528228 ], [ 4.29153313826686, 53.363997533259308 ], [ 4.812228023986042, 53.622139698403195 ], [ 6.287530200190395, 54.588806964042988 ], [ 7.242137490675566, 55.038865056131947 ] ] ] } },
{ "type": "Feature", "properties": { "id": null, "route_name": null, "year": null, "company": null }, "geometry": { "type": "MultiLineString", "coordinates": [ [ [ -27.817984814416114, 36.883892984741429 ], [ -25.821987752492582, 39.809793110256862 ], [ -23.392078285803052, 42.871199775187769 ], [ -22.263906033411494, 44.378741477744782 ], [ -20.701821376253946, 45.484567592961973 ], [ -18.8793892762368, 46.9258913200987 ], [ -17.317304619079248, 48.271722435021061 ], [ -16.362697328594084, 49.074003296938315 ], [ -14.106352823810953, 50.364380591869512 ], [ -12.717833128559798, 51.241872637643233 ], [ -11.242530952355446, 52.102938693913629 ], [ -9.767228776151093, 52.368671326405867 ], [ -9.420098852338304, 52.790540064816142 ], [ -7.337319309461568, 53.622139698403195 ], [ -6.382712018976401, 54.235287049617554 ], [ -4.299932476099666, 55.088562352694353 ], [ -2.824630299895313, 55.286735045459928 ], [ -1.436110604644158, 55.385452050234242 ], [ 0.299539014419787, 54.639061208491412 ], [ 1.601276228717745, 54.689253416072532 ], [ 2.555883519202914, 55.385452050234242 ], [ 4.29153313826686, 56.31105025145213 ], [ 6.200747719237199, 57.26171154953947 ], [ 7.155355009722368, 57.912923009101711 ], [ 8.02317981925434, 58.461871041581638 ] ] ] } },
{ "type": "Feature", "properties": { "id": null, "route_name": null, "year": null, "company": null }, "geometry": { "type": "MultiLineString", "coordinates": [ [ [ -4.82062736181885, 58.733175689366256 ], [ -3.432107666567695, 57.866793917840553 ], [ -2.651065337988919, 56.407202678051036 ], [ -2.824630299895313, 55.286735045459928 ], [ -2.390717895129328, 54.437671630537551 ], [ -1.522893085597355, 53.312180415228518 ], [ -0.394720833205791, 52.156212524097413 ], [ 0.386321495372984, 51.296169349665306 ], [ 1.948406152530534, 50.308989507117225 ], [ 2.38231855729652, 49.639251427441948 ], [ 2.38231855729652, 48.788940741891238 ], [ 3.510490809688084, 47.749215451715791 ], [ 3.510490809688084, 46.866590978629176 ], [ 4.378315619220057, 46.269979169764497 ], [ 4.985792985892437, 44.626320738532016 ], [ 5.506487871611619, 43.314804476734288 ], [ 6.113965238284002, 42.424383644285271 ], [ 7.242137490675566, 40.407148174317811 ], [ 7.849614857347945, 38.39563904026933 ], [ 7.849614857347945, 37.712296326861257 ], [ 7.676049895441552, 37.506051424487119 ], [ 4.204750657313662, 37.506051424487119 ], [ 2.469101038249718, 37.299235148369448 ], [ -0.394720833205791, 36.605735590474445 ], [ -1.956805490363342, 35.76523519509913 ], [ -4.126367514193272, 35.199909500510067 ], [ -4.21314999514647, 33.985472127129761 ] ] ] } },
{ "type": "Feature", "properties": { "id": null, "route_name": null, "year": null, "company": null }, "geometry": { "type": "MultiLineString", "coordinates": [ [ [ -79.064850419509128, 41.337546514823586 ], [ -75.585806680271403, 42.87002105001168 ], [ -73.520124460098998, 44.598076883769835 ], [ -70.802121538819549, 45.823500294666438 ], [ -68.410278968093621, 47.391824802867397 ], [ -66.8881973321771, 48.195227266777053 ] ] ] } },
{ "type": "Feature", "properties": { "id": null, "route_name": null, "year": null, "company": null }, "geometry": { "type": "MultiLineString", "coordinates": [ [ [ -79.7171711206162, 46.125731115944646 ], [ -77.434048666741432, 45.214089156201958 ], [ -74.607325628610795, 44.829855093025245 ], [ -72.541643408438404, 44.829855093025245 ], [ -69.932360604010114, 46.351321968736038 ], [ -68.301558851242433, 47.096596442060381 ], [ -66.670757098474752, 47.904517938371058 ] ] ] } },
{ "type": "Feature", "properties": { "id": null, "route_name": null, "year": null, "company": null }, "geometry": { "type": "MultiLineString", "coordinates": [ [ [ -71.237002006224259, 45.367060748770292 ], [ -71.128281889373071, 43.582980428182559 ], [ -71.671882473628969, 42.30973613585931 ], [ -73.085243992694302, 40.845923463874868 ], [ -73.986454147102791, 37.855598079594245 ], [ -73.411404343247895, 35.43366578950004 ], [ -72.195414906746066, 27.318654647124809 ], [ -71.371385286174089, 19.091999299891906 ] ] ] } },
{ "type": "Feature", "properties": { "id": null, "route_name": null, "year": null, "company": null }, "geometry": { "type": "MultiLineString", "coordinates": [ [ [ -74.152485255604461, 19.77194854237878 ], [ -67.354240885885829, 25.566432406212865 ], [ -66.221200157599384, 27.043769208576734 ], [ -64.573140916455458, 28.863370225321997 ], [ -63.646107593312031, 30.385468101978574 ], [ -63.749111295883502, 32.233404510392816 ], [ -64.470137213883973, 33.959119818591368 ], [ -64.573140916455458, 35.482953971415284 ], [ -64.573140916455458, 37.060678502299055 ], [ -64.573140916455458, 38.44509760156815 ], [ -64.573140916455458, 39.882548214275872 ], [ -64.058122403598006, 41.753196213210856 ], [ -63.646107593312031, 43.346573583371566 ] ] ] } },
{ "type": "Feature", "properties": { "id": null, "route_name": null, "year": null, "company": null }, "geometry": { "type": "MultiLineString", "coordinates": [ [ [ -74.770507471033412, 43.121440172269807 ], [ -73.1224482298895, 43.719947099901006 ], [ -71.886403799031584, 43.719947099901006 ], [ -71.783400096460085, 43.346573583371566 ], [ -71.062374178459635, 42.364992903325494 ], [ -68.899296424458242, 41.135512166993095 ], [ -67.251237183314331, 40.433600198365639 ], [ -64.985155726741453, 39.40666399660838 ], [ -63.646107593312031, 39.247308777792547 ], [ -61.68903724445363, 39.327031776283143 ], [ -60.040978003309718, 40.119260914871226 ], [ -59.11394468016627, 40.746476874705877 ], [ -58.392918762165799, 41.829993057418179 ], [ -57.568889141593857, 42.970889263629338 ], [ -57.568889141593857, 44.0169810834823 ], [ -57.156874331307876, 44.753087849525073 ], [ -56.023833603021444, 44.899198308743827 ], [ -55.405811387592465, 45.335307603636849 ] ] ] } },
{ "type": "Feature", "properties": { "id": null, "route_name": null, "year": null, "company": null }, "geometry": { "type": "MultiLineString", "coordinates": [ [ [ -62.822077972740068, 48.975544358828813 ], [ -62.101052054739611, 48.02000936222349 ], [ -61.277022434167655, 47.743687754714742 ], [ -60.968011326453173, 46.411001884985033 ], [ -60.143981705881217, 45.839889468908325 ], [ -60.143981705881217, 45.262854185101482 ], [ -59.11394468016627, 44.533227786890613 ], [ -59.11394468016627, 44.386191530358801 ], [ -58.289915059594314, 44.312534550183251 ], [ -56.023833603021444, 44.97211465838415 ], [ -58.701929869880288, 44.0169810834823 ], [ -60.246985408452716, 43.496200381871439 ], [ -60.968011326453173, 42.592896090857508 ], [ -61.998048352168112, 41.829993057418179 ], [ -62.925081675311546, 41.676307375413074 ], [ -64.161126106169505, 40.590221521850289 ], [ -66.324203860170869, 40.276613220166205 ], [ -67.869259398743296, 40.511956586965503 ], [ -69.826329747601676, 41.599326572459596 ], [ -71.474388988745588, 42.819968933881754 ] ] ] } },
{ "type": "Feature", "properties": { "id": null, "route_name": null, "year": null, "company": null }, "geometry": { "type": "MultiLineString", "coordinates": [ [ [ -69.208307532172711, 41.290484302247521 ], [ -66.0151927524564, 41.367832667490525 ], [ -64.058122403598006, 42.212596427945087 ], [ -63.749111295883502, 43.046210904124877 ], [ -63.028085377883045, 43.421433206155193 ] ] ] } },
{ "type": "Feature", "properties": { "id": null, "route_name": null, "year": null, "company": null }, "geometry": { "type": "MultiLineString", "coordinates": [ [ [ -78.890655573893184, 41.290484302247521 ], [ -76.727577819891792, 40.119260914871226 ], [ -74.564500065890428, 39.247308777792547 ], [ -71.062374178459635, 38.847333926012446 ], [ -67.869259398743296, 38.767067357132163 ], [ -65.50017423959892, 38.927510034442868 ], [ -62.307059459882588, 40.276613220166205 ], [ -59.834970598166713, 41.753196213210856 ], [ -59.010940977594757, 42.819968933881754 ], [ -57.568889141593857, 43.942861365113892 ], [ -56.126837305592922, 44.386191530358801 ] ] ] } },
{ "type": "Feature", "properties": { "id": null, "route_name": null, "year": null, "company": null }, "geometry": { "type": "MultiLineString", "coordinates": [ [ [ -60.555996516167177, 42.895475267691928 ], [ -59.319952085309254, 41.290484302247521 ], [ -56.950866926164878, 39.961543621871066 ], [ -54.375774361877525, 38.847333926012446 ], [ -51.079655879589708, 37.633869621304335 ], [ -47.371522587015896, 37.633869621304335 ], [ -41.603315243012204, 37.715396439506584 ], [ -38.101189355581404, 37.715396439506584 ], [ -33.363019037292659, 37.388752174860528 ], [ -29.963896852433347, 37.142830682238554 ], [ -27.697815395860466, 36.731179970049958 ] ] ] } },
{ "type": "Feature", "properties": { "id": null, "route_name": null, "year": null, "company": null }, "geometry": { "type": "MultiLineString", "coordinates": [ [ [ -73.946477850461463, 39.40666399660838 ], [ -69.929333450173175, 36.813687927179195 ], [ -68.075266803886294, 36.565897859645332 ], [ -67.045229778171347, 35.901231606107977 ], [ -64.367133511312488, 35.734183825344893 ], [ -61.483029839310632, 35.734183825344893 ], [ -57.877900249308333, 35.230936394680491 ], [ -53.75775214644856, 35.399035519102952 ], [ -50.358629961589244, 35.399035519102952 ], [ -43.972400402156588, 35.650528212101143 ], [ -37.071152329866464, 35.482953971415284 ], [ -32.53898941672071, 35.984623603529876 ], [ -28.521845016432422, 36.813687927179195 ], [ -27.182796883002997, 36.813687927179195 ] ] ] } },
{ "type": "Feature", "properties": { "id": null, "route_name": null, "year": null, "company": null }, "geometry": { "type": "MultiLineString", "coordinates": [ [ [ -27.079793180431498, 36.896107051273312 ], [ -22.753637672428738, 36.896107051273312 ], [ -19.354515487569419, 37.306867589582311 ], [ -15.337371087281136, 37.306867589582311 ], [ -11.938248902421821, 37.388752174860528 ], [ -9.878174850991932, 37.959438969259786 ], [ -7.200078584133077, 37.878181178931683 ] ] ] } },
{ "type": "Feature", "properties": { "id": null, "route_name": null, "year": null, "company": null }, "geometry": { "type": "MultiLineString", "coordinates": [ [ [ -26.873785775288511, 37.388752174860528 ], [ -27.182796883002997, 36.731179970049958 ], [ -25.431733939287586, 38.040606954059903 ], [ -23.371659887857703, 38.28357144461409 ], [ -18.839496974711945, 41.05788846299825 ], [ -16.573415518139068, 42.819968933881754 ], [ -15.131363682138144, 44.0169810834823 ], [ -12.659274820422281, 45.117669595076961 ], [ -9.775171148420437, 46.623642924247648 ], [ -6.58205636870411, 48.088859522740258 ], [ -4.727989722417209, 48.15761763331917 ], [ -4.315974912131231, 48.431730067266606 ] ] ] } },
{ "type": "Feature", "properties": { "id": null, "route_name": null, "year": null, "company": null }, "geometry": { "type": "MultiLineString", "coordinates": [ [ [ -80.229703707322614, 32.494415054635645 ], [ -78.169629655892749, 34.044511917521191 ], [ -77.345600035320786, 35.062488245902529 ], [ -77.345600035320786, 35.650528212101143 ], [ -77.345600035320786, 36.731179970049958 ], [ -77.242596332749272, 37.796833647330821 ], [ -76.93358522503479, 38.364379580569114 ], [ -74.873511173604911, 39.087590651242373 ], [ -74.152485255604461, 39.167495052177891 ] ] ] } },
{ "type": "Feature", "properties": { "id": null, "route_name": null, "year": null, "company": null }, "geometry": { "type": "MultiLineString", "coordinates": [ [ [ -34.605827695619134, -4.068695323628113 ], [ -30.914749199564849, -0.979546243715208 ], [ -29.119089390673587, 0.915785727040036 ], [ -27.622706216597528, 3.208600539483058 ], [ -26.226081920793199, 4.800793601501148 ], [ -24.929216503260623, 7.379662884841562 ], [ -23.831868842271511, 9.845313218678625 ], [ -22.834280059554143, 12.487559437902823 ], [ -22.934038937825875, 14.041066689029563 ], [ -23.432833329184565, 15.391838909004207 ], [ -23.931627720543243, 16.829411688191765 ], [ -23.931627720543243, 19.29509322869049 ], [ -22.535003424738928, 22.6478996464636 ], [ -21.736932398565028, 24.567385366026173 ], [ -20.839102494119395, 26.457920114232504 ], [ -19.741754833130283, 29.453401279541062 ], [ -17.846336145967275, 31.175664147800806 ], [ -16.150435215347741, 31.940703234421456 ], [ -13.157668867195625, 33.034588565956795 ], [ -10.464179153858721, 35.10032737512315 ], [ -9.566349249413083, 37.115020377378052 ], [ -9.566349249413083, 38.298837060805468 ], [ -10.065143640771772, 39.077500781637859 ], [ -10.464179153858721, 39.924212599745552 ], [ -10.464179153858721, 41.884327356951431 ], [ -9.965384762500037, 44.21665444343121 ], [ -9.865625884228299, 45.907597396796945 ], [ -8.967795979782661, 47.007116251874194 ], [ -7.27189504916313, 48.877957884300031 ], [ -5.975029631630545, 50.364238846685559 ], [ -3.979852066195801, 51.371529015170317 ], [ -3.381298796565377, 51.681852364474665 ] ] ] } },
{ "type": "Feature", "properties": { "id": null, "route_name": null, "year": null, "company": null }, "geometry": { "type": "MultiLineString", "coordinates": [ [ [ -34.506068817347391, -3.869656224682189 ], [ -31.513302469195281, 0.017994817649685 ], [ -29.218848268945326, 3.108993242590436 ], [ -27.822223973141, 5.694850942472537 ], [ -26.026564164249724, 8.367834016760142 ], [ -24.330663233630194, 11.609517098450185 ], [ -23.632351085728036, 13.362631909326829 ], [ -22.036209033380235, 16.255636149323006 ], [ -20.240549224488969, 19.671278887626602 ], [ -19.542237076586808, 22.279142608750998 ], [ -17.547059511152064, 26.36857518553148 ], [ -17.247782876336856, 28.843527677574532 ], [ -16.649229606706427, 31.004806207979595 ], [ -16.050676337076005, 33.034588565956795 ], [ -15.651640823989057, 36.5561244514344 ], [ -15.053087554358632, 39.617511204254804 ], [ -13.756222136826047, 42.254597230587713 ], [ -12.958151110652151, 44.073484866273077 ], [ -11.960562327934781, 45.138790892240202 ], [ -10.663696910402196, 46.939046603751713 ], [ -8.868037101510923, 48.416592598449569 ], [ -7.670930562250078, 49.594445221946408 ], [ -5.875270753358808, 50.744524246349592 ], [ -3.381298796565377, 51.867032099055635 ], [ -4.179369822739275, 51.121745869837575 ], [ -4.67816421409796, 49.400070052177014 ], [ -4.67816421409796, 47.951002165555757 ], [ -4.67816421409796, 46.460132208801639 ], [ -4.478646457554486, 44.997879003088002 ], [ -2.982263283478428, 43.207178593171797 ], [ -0.588050204956734, 42.622705944304769 ], [ 3.402304925912755, 42.622705944304769 ], [ 7.492418935053982, 44.573059058562308 ], [ 9.188319865673515, 45.4895508581466 ] ] ] } },
{ "type": "Feature", "properties": { "id": null, "route_name": null, "year": null, "company": null }, "geometry": { "type": "MultiLineString", "coordinates": [ [ [ 4.100617073814916, 37.590815465333009 ], [ 4.30013483035839, 40.153341188116393 ], [ 4.30013483035839, 41.062141038654289 ], [ 5.297723613075764, 43.207178593171797 ] ] ] } },
{ "type": "Feature", "properties": { "id": null, "route_name": null, "year": null, "company": null }, "geometry": { "type": "MultiLineString", "coordinates": [ [ [ 6.694347908880085, 37.748742832849651 ], [ 6.295312395793136, 40.000674336213685 ], [ 5.896276882706186, 41.586557336150442 ], [ 5.197964734804025, 42.402100203114486 ], [ 4.399893708630128, 43.061580187725156 ] ] ] } },
{ "type": "Feature", "properties": { "id": null, "route_name": null, "year": null, "company": null }, "geometry": { "type": "MultiLineString", "coordinates": [ [ [ 3.202787169369282, 37.590815465333009 ], [ 3.103028291097544, 40.153341188116393 ], [ 3.103028291097544, 41.36232431445044 ], [ 4.399893708630128, 43.207178593171797 ] ] ] } },
{ "type": "Feature", "properties": { "id": null, "route_name": null, "year": null, "company": null }, "geometry": { "type": "MultiLineString", "coordinates": [ [ [ -4.877681970641436, 48.350338552089823 ], [ -6.47382402298923, 46.802647352074402 ], [ -7.471412805706604, 43.929968086979336 ], [ -7.471412805706604, 42.622705944304769 ], [ -6.972618414347918, 41.958554092343029 ], [ -6.87285953607618, 39.463648429742925 ], [ -6.274306266445756, 38.220505164157629 ], [ -5.176958605456647, 37.194528877896403 ], [ -3.281539918293639, 37.194528877896403 ], [ -2.682986648663216, 37.353294887190259 ], [ -2.682986648663216, 35.831564384997868 ], [ -4.67816421409796, 35.831564384997868 ], [ -6.87285953607618, 35.10032737512315 ], [ -8.967795979782661, 32.783335758809592 ], [ -10.86321466694567, 31.004806207979595 ], [ -13.3571866237391, 28.756108167031464 ], [ -14.953328676086898, 27.258887430806769 ], [ -15.851158580532532, 25.920817075539791 ], [ -17.646818389423803, 22.001934331745662 ], [ -17.846336145967275, 17.971712876971726 ], [ -16.948506241521638, 15.4879974919393 ] ] ] } },
{ "type": "Feature", "properties": { "id": null, "route_name": null, "year": null, "company": null }, "geometry": { "type": "MultiLineString", "coordinates": [ [ [ -23.086659479889995, 15.048433435871377 ], [ -23.086659479889995, 18.640482137338079 ], [ -21.699384774999526, 21.476333955983222 ], [ -19.088044154029244, 26.469972858285171 ], [ -17.047934293896212, 31.116413303338717 ], [ -14.844615644952531, 32.846754930842714 ], [ -12.559692601603535, 34.812439130436005 ], [ -11.498835474334355, 35.745069057485644 ], [ -10.274769558254535, 36.797700852416575 ], [ -9.458725614201322, 37.964847660488751 ], [ -9.295516825390679, 39.303426682945151 ], [ -9.377121219795999, 40.678803160775345 ], [ -9.377121219795999, 42.74963761023669 ], [ -9.132308036580037, 44.521261951937042 ], [ -8.642681670148107, 46.127611609842297 ], [ -7.581824542878928, 47.578465573087215 ], [ -6.357758626799106, 48.99020179336177 ], [ -6.112945443583143, 50.726043280700111 ], [ -3.501604822612859, 51.596015914520017 ] ] ] } },
{ "type": "Feature", "properties": { "id": null, "route_name": null, "year": null, "company": null }, "geometry": { "type": "MultiLineString", "coordinates": [ [ [ -9.540330008606643, 52.499344517656503 ], [ -8.561077275742786, 51.137486113671827 ], [ -6.439363021204429, 50.467041131662633 ], [ -5.460110288340571, 50.622613433696259 ], [ -4.562461949882037, 50.674356845646855 ], [ -3.664813611423501, 50.932219668860263 ], [ -3.338396033802215, 50.467041131662633 ], [ -1.053472990453216, 50.518955597020017 ], [ 0.578614897653212, 50.880760932531764 ], [ 0.578614897653212, 52.200263095725383 ], [ 2.129098391354319, 52.499344517656503 ], [ 2.618724757786247, 53.335787005144724 ], [ 3.842790673866069, 54.346843683559541 ], [ 4.577230223513961, 54.91367324349563 ], [ 5.801296139593782, 55.611146774054745 ], [ 7.025362055673603, 56.06935074959295 ], [ 8.004614788537461, 56.341687156758724 ] ] ] } },
{ "type": "Feature", "properties": { "id": null, "route_name": null, "year": null, "company": null }, "geometry": { "type": "MultiLineString", "coordinates": [ [ [ 8.004614788537461, 56.341687156758724 ], [ 5.801296139593782, 56.296432006391171 ], [ 4.577230223513961, 55.703219854709303 ], [ 3.597977490650105, 55.565028992540569 ], [ 2.047493996948997, 55.054148445788989 ], [ 0.415406108842569, 55.007377992544818 ], [ -0.645451018426609, 55.007377992544818 ], [ -1.543099356885145, 55.007377992544818 ], [ -2.767165272964966, 55.333626324379154 ] ] ] } },
{ "type": "Feature", "properties": { "id": null, "route_name": null, "year": null, "company": null }, "geometry": { "type": "MultiLineString", "coordinates": [ [ [ -2.767165272964966, 55.333626324379154 ], [ 0.252197320031927, 57.323798616607903 ], [ 2.129098391354319, 58.280347505982469 ], [ 3.597977490650105, 59.086197527390141 ], [ 4.169208251487355, 59.544272131601133 ] ] ] } },
{ "type": "Feature", "properties": { "id": null, "route_name": null, "year": null, "company": null }, "geometry": { "type": "MultiLineString", "coordinates": [ [ [ -2.359143300938359, 55.333626324379154 ], [ -0.563846624021287, 55.333626324379154 ], [ 0.741823686463855, 56.023773151845944 ], [ 2.618724757786247, 57.455733472254458 ], [ 5.230065378756533, 58.536840918494178 ], [ 6.780548872457639, 59.295178457720247 ], [ 8.086219182942783, 59.544272131601133 ] ] ] } },
{ "type": "Feature", "properties": { "id": null, "route_name": null, "year": null, "company": null }, "geometry": { "type": "MultiLineString", "coordinates": [ [ [ -0.971868596047895, 55.100864328203542 ], [ 1.394658841706427, 55.795076518661773 ], [ 2.455515968975605, 56.432036638627295 ], [ 3.679581885055426, 57.014100243207771 ], [ 4.169208251487355, 57.499606294963726 ], [ 5.393274167567175, 58.323226130344807 ], [ 7.025362055673603, 58.96019454894931 ], [ 8.331032366158746, 59.626896655672333 ] ] ] } },
{ "type": "Feature", "properties": { "id": null, "route_name": null, "year": null, "company": null }, "geometry": { "type": "MultiLineString", "coordinates": [ [ [ 5.14846098435121, 53.481720502631298 ], [ 7.433384027700211, 51.29083963343183 ], [ 10.044724648670497, 49.786953712569094 ], [ 11.840021325587569, 48.936625184542905 ], [ 14.532966340963174, 48.936625184542905 ] ] ] } },
{ "type": "Feature", "properties": { "id": null, "route_name": null, "year": null, "company": null }, "geometry": { "type": "MultiLineString", "coordinates": [ [ [ -6.847384993231036, 42.026377812651347 ], [ -8.071450909310856, 39.994577060020617 ], [ -7.66342893728425, 38.093406783276315 ], [ -6.357758626799106, 36.797700852416575 ], [ -3.991231189044787, 36.273158902845744 ], [ -1.135077384858537, 36.666899087423005 ], [ 2.210702785759641, 38.093406783276315 ], [ 4.005999462676711, 39.177021440133451 ], [ 4.577230223513961, 39.555553353424017 ] ] ] } },
{ "type": "Feature", "properties": { "id": null, "route_name": null, "year": null, "company": null }, "geometry": { "type": "MultiLineString", "coordinates": [ [ [ -8.479472881337463, 38.669125920771499 ], [ -8.479472881337463, 36.797700852416575 ], [ -8.31626409252682, 35.413220587189308 ], [ -6.684176204420393, 35.413220587189308 ], [ -5.215297105124606, 35.413220587189308 ], [ -3.01197845618093, 35.346686049119533 ] ] ] } },
{ "type": "Feature", "properties": { "id": null, "route_name": null, "year": null, "company": null }, "geometry": { "type": "MultiLineString", "coordinates": [ [ [ -3.256791639396894, 35.280096666047463 ], [ -8.153055303716179, 34.61119638338991 ], [ -10.437978347065179, 35.146753544463188 ], [ -11.335626685523714, 35.877422999495174 ], [ -11.335626685523714, 37.058635117424046 ], [ -10.927604713497107, 37.964847660488751 ], [ -10.682791530281142, 38.093406783276315 ], [ -10.274769558254535, 38.093406783276315 ], [ -9.458725614201322, 38.221740176532563 ], [ -9.377121219795999, 38.221740176532563 ] ] ] } },
{ "type": "Feature", "properties": { "id": null, "route_name": null, "year": null, "company": null }, "geometry": { "type": "MultiLineString", "coordinates": [ [ [ -8.887494853364073, 37.836063059501626 ], [ -10.437978347065179, 38.349847593900883 ], [ -11.090813502307748, 38.477728793981221 ], [ -11.417231079929037, 38.860012750450018 ], [ -11.988461840766284, 39.429604054054046 ], [ -12.314879418387573, 40.244189230142283 ], [ -12.314879418387573, 40.987518488581792 ], [ -12.314879418387573, 41.600631289930277 ], [ -11.988461840766284, 42.5094770670107 ], [ -11.498835474334355, 44.229619978523843 ], [ -11.090813502307748, 45.501978397388818 ], [ -10.029956375038573, 46.690271978058782 ], [ -9.132308036580037, 47.413059028723445 ], [ -7.581824542878928, 48.234885623812517 ], [ -7.255406965257643, 48.613956147964707 ], [ -7.745033331689573, 49.097182375120795 ], [ -8.724286064553427, 49.416744148936779 ], [ -8.887494853364073, 50.310955307186724 ], [ -9.866747586227929, 50.310955307186724 ], [ -9.866747586227929, 51.086254734168641 ], [ -9.866747586227929, 51.596015914520017 ], [ -9.785143191822606, 52.350056755502443 ] ] ] } },
{ "type": "Feature", "properties": { "id": null, "route_name": null, "year": null, "company": null }, "geometry": { "type": "MultiLineString", "coordinates": [ [ [ -16.150285955437674, 50.726043280700111 ], [ -12.314879418387573, 51.03496654807013 ], [ -10.356373952659858, 51.086254734168641 ], [ -7.173802570852321, 51.443682695351249 ], [ -4.970483921908643, 51.697288457354027 ], [ -1.706308145695787, 51.999750078358574 ], [ 1.149845658490462, 51.798334870982892 ], [ 3.35316430743414, 50.983621533530005 ], [ 5.882900533999104, 50.674356845646855 ], [ 8.902263126995996, 49.257221888414932 ] ] ] } },
{ "type": "Feature", "properties": { "id": null, "route_name": null, "year": null, "company": null }, "geometry": { "type": "MultiLineString", "coordinates": [ [ [ -5.133692710719287, 35.678809404918795 ], [ -6.439363021204429, 35.877422999495174 ], [ -7.01059378204168, 36.273158902845744 ], [ -7.418615754068286, 36.273158902845744 ], [ -7.581824542878928, 36.60141467811254 ], [ -8.071450909310856, 37.188767028741552 ], [ -8.153055303716179, 37.964847660488751 ], [ -8.153055303716179, 38.413816485996449 ], [ -8.31626409252682, 39.177021440133451 ], [ -8.31626409252682, 39.744049242132952 ], [ -8.153055303716179, 40.678803160775345 ], [ -7.255406965257643, 42.026377812651347 ], [ -6.765780598825716, 42.147499671976995 ], [ -7.826637726094892, 43.108140233995307 ], [ -8.397868486932143, 44.521261951937042 ], [ -8.397868486932143, 45.330131121233734 ], [ -8.234659698121499, 46.071026281900238 ], [ -7.745033331689573, 47.578465573087215 ], [ -6.520967415609751, 48.017003834903804 ], [ -5.86813226036718, 48.071560939300824 ] ] ] } },
{ "type": "Feature", "properties": { "id": null, "route_name": null, "year": null, "company": null }, "geometry": { "type": "MultiLineString", "coordinates": [ [ [ -8.071450909310856, 35.346686049119533 ], [ -8.724286064553427, 35.811273603173824 ], [ -8.80589045895875, 35.877422999495174 ], [ -9.132308036580037, 36.404627802809358 ], [ -9.295516825390679, 37.253749052849486 ], [ -9.295516825390679, 37.836063059501626 ], [ -9.213912430985356, 38.605383540311472 ], [ -8.479472881337463, 38.986986765853878 ], [ -8.071450909310856, 39.618442415001539 ], [ -7.337011359662963, 41.478469873917 ], [ -7.092198176447, 42.328748741773147 ], [ -8.31626409252682, 42.328748741773147 ], [ -8.642681670148107, 41.661625448600304 ], [ -9.213912430985356, 40.864204864810283 ], [ -9.540330008606643, 40.119497688651329 ], [ -9.703538797417284, 39.11373343066056 ], [ -9.540330008606643, 38.413816485996449 ], [ -8.887494853364073, 37.383545061191597 ], [ -8.80589045895875, 36.141468252873381 ], [ -8.561077275742786, 35.346686049119533 ] ] ] } },
{ "type": "Feature", "properties": { "id": null, "route_name": null, "year": null, "company": null }, "geometry": { "type": "MultiLineString", "coordinates": [ [ [ -58.708105638840053, 42.788524146444388 ], [ -57.694615544342881, 42.564992307856755 ], [ -56.579776440395968, 42.564992307856755 ], [ -55.26223931754965, 42.564992307856755 ], [ -54.654145260851337, 42.639592259683162 ], [ -53.843353185253598, 43.306969720730407 ], [ -52.627165071856972, 43.967099608831155 ], [ -51.81637299625924, 44.475518059670485 ], [ -50.904231911211781, 44.61997395718263 ] ] ] } },
{ "type": "Feature", "properties": { "id": null, "route_name": null, "year": null, "company": null }, "geometry": { "type": "MultiLineString", "coordinates": [ [ [ -64.619780014816072, 47.40618552313061 ], [ -63.339914693063598, 48.170525689444283 ], [ -62.842189290159851, 48.595532039695875 ], [ -62.69998203218735, 49.063603296217565 ] ] ] } },
{ "type": "Feature", "properties": { "id": null, "route_name": null, "year": null, "company": null }, "geometry": { "type": "MultiLineString", "coordinates": [ [ [ -58.220453406053721, 46.776873497824717 ], [ -57.153898971259999, 47.502342977733527 ], [ -54.238650182823797, 48.642535987479633 ], [ -52.176644942222602, 49.388653866674822 ], [ -51.750023168305113, 49.71156791847875 ], [ -49.474707040745159, 50.80253666041267 ], [ -47.981530832033947, 51.294233651607023 ], [ -44.284142124749039, 52.392383186918742 ], [ -39.662406240642888, 53.25169517854065 ], [ -35.538395759440476, 53.968801246251751 ], [ -31.343281649251825, 54.302059601970235 ], [ -28.072514715884399, 54.426340996888683 ], [ -23.30857157380575, 54.508986462891841 ], [ -20.677737301314558, 54.052367285472165 ], [ -18.829042947672104, 54.052367285472165 ], [ -14.562825208497202, 53.123880641945668 ], [ -12.003094564992258, 52.651962091078843 ], [ -9.869985695404806, 52.522364371438272 ] ] ] } },
{ "type": "Feature", "properties": { "id": null, "route_name": null, "year": null, "company": null }, "geometry": { "type": "MultiLineString", "coordinates": [ [ [ 44.374970419803439, 12.993019494447454 ], [ 47.055673289073589, 14.250721270418572 ], [ 49.181747978494762, 14.966313303895628 ], [ 51.954888877739741, 14.787634494461786 ], [ 54.728029776984719, 15.590506564184041 ], [ 58.887741125852195, 16.301550049843645 ], [ 62.215510204946185, 17.451467842575649 ], [ 64.618898984291818, 17.451467842575649 ], [ 69.610552602932785, 18.944265031228547 ], [ 72.661007592102266, 18.944265031228547 ], [ 73.215635771951284, 19.031673212526933 ], [ 66.282783523838802, 17.363263311209277 ], [ 63.047452474719677, 16.567533799802892 ], [ 57.870922796129037, 15.412355679659953 ], [ 55.375095986808539, 14.966313303895628 ], [ 53.433897357337052, 14.876992402187353 ], [ 51.862450847764912, 14.60880846982014 ], [ 50.013690248268247, 14.250721270418572 ], [ 46.963235259098759, 13.442963626259024 ], [ 45.02203662962728, 13.263085670096551 ], [ 44.467408449778283, 13.083074505399674 ], [ 47.980053588821931, 12.9029318116835 ], [ 51.122946607966249, 13.173096633996654 ], [ 53.15658326741255, 13.622706700868427 ], [ 54.728029776984719, 14.161110004096761 ], [ 57.686046736179378, 14.161110004096761 ], [ 59.627245365650865, 14.787634494461786 ], [ 62.585262324845502, 15.323222824020906 ], [ 67.299601853561981, 16.833150716565537 ], [ 70.072742752806974, 17.363263311209277 ], [ 72.753445622077109, 18.506540822788892 ], [ 72.753445622077109, 18.769311467098046 ] ] ] } },
{ "type": "Feature", "properties": { "id": null, "route_name": null, "year": null, "company": null }, "geometry": { "type": "MultiLineString", "coordinates": [ [ [ 7.870647423538164, 37.699793485833084 ], [ 9.685001163379818, 37.478608817052688 ], [ 11.35978923092596, 36.9227774447901 ], [ 14.220885512983953, 35.79889369899815 ], [ 15.895673580530094, 35.572174915809782 ], [ 20.082643749395444, 34.082900139973681 ], [ 23.362437048339981, 33.444763974499885 ], [ 27.270275872614306, 32.036115532542475 ], [ 29.642892301638014, 31.561648810912725 ], [ 31.596811713775175, 30.485260838385503 ] ] ] } },
{ "type": "Feature", "properties": { "id": null, "route_name": null, "year": null, "company": null }, "geometry": { "type": "MultiLineString", "coordinates": [ [ [ 31.817610395008881, 30.399131479027446 ], [ 32.804644113905098, 28.481764202645238 ], [ 34.778711551697526, 26.596856394170679 ], [ 35.76574527059374, 25.093633557973998 ], [ 37.739812708386175, 24.196523429425714 ], [ 39.030549110019685, 21.75014492397845 ], [ 40.473136853021856, 20.261721178160371 ], [ 41.232393559865088, 18.182774426829674 ], [ 42.523129961498597, 16.51600329080906 ], [ 43.662015021763459, 15.421083913624203 ], [ 43.662015021763459, 14.46744707854613 ], [ 44.497197399291039, 12.99237024625689 ], [ 42.750906973551572, 13.657301220390476 ], [ 41.004616547812113, 15.347878870835931 ], [ 38.802772097966717, 18.543071408452207 ], [ 37.360184354964559, 21.114069681568921 ], [ 35.537968258540772, 23.502104043719964 ], [ 34.247231856907263, 24.611374784457652 ], [ 33.336123808695362, 25.984213729400782 ], [ 32.728718443220764, 27.138690427758544 ], [ 31.969461736377529, 27.946529710954543 ], [ 31.589833382955909, 30.595396152730242 ] ] ] } },
{ "type": "Feature", "properties": { "id": null, "route_name": null, "year": null, "company": null }, "geometry": { "type": "MultiLineString", "coordinates": [ [ [ 9.255011071299695, 49.138057754537357 ], [ 12.096059576745363, 47.953908201947591 ], [ 15.568452194512295, 46.525227606181218 ], [ 20.513981074362167, 45.280513997134108 ], [ 24.722941823170562, 43.552053955888873 ], [ 27.248318272455602, 41.929321403345142 ], [ 30.720710890222534, 40.504686577902838 ], [ 37.349824069595769, 38.885513503845658 ], [ 38.822960331678708, 37.895853233266351 ] ] ] } },
{ "type": "Feature", "properties": { "id": null, "route_name": null, "year": null, "company": null }, "geometry": { "type": "MultiLineString", "coordinates": [ [ [ -0.055134625364589, 5.775904306022458 ], [ 1.390755656741586, 5.356175636836398 ], [ 2.414927939900125, 5.236199196733754 ], [ 4.041554507269572, 4.936158490812537 ], [ 5.306708504112475, 4.936158490812537 ], [ 6.451371644113195, 5.236199196733754 ], [ 6.99358049990301, 5.835840693444863 ], [ 7.475543927271737, 6.075521518129588 ] ] ] } },
{ "type": "Feature", "properties": { "id": null, "route_name": null, "year": null, "company": null }, "geometry": { "type": "MultiLineString", "coordinates": [ [ [ 4.764499648322659, 6.494703795871703 ], [ 5.607935646217928, 4.515875255550614 ], [ 6.692353357797558, 3.614476832622459 ], [ 8.318979925167005, 2.892701797938649 ], [ 9.704624778852089, 2.471446717066621 ] ] ] } },
{ "type": "Feature", "properties": { "id": null, "route_name": null, "year": null, "company": null }, "geometry": { "type": "MultiLineString", "coordinates": [ [ [ -2.946915189576938, 4.515875255550614 ], [ -1.019061480102039, 4.455814380518313 ], [ 0.908792229372861, 4.455814380518313 ], [ 2.896891367268851, 5.476128527326352 ], [ 4.222290792532844, 6.374972058794543 ], [ 4.222290792532844, 6.73408132331342 ] ] ] } },
{ "type": "Feature", "properties": { "id": null, "route_name": null, "year": null, "company": null }, "geometry": { "type": "MultiLineString", "coordinates": [ [ [ 39.898034160900686, -4.921541747187628 ], [ 41.709008458826261, -5.210165499729173 ], [ 42.578276121830548, -5.138021701436328 ], [ 43.157787897166735, -3.765867134312777 ], [ 43.012909953332688, -2.246787041771401 ] ] ] } },
{ "type": "Feature", "properties": { "id": null, "route_name": null, "year": null, "company": null }, "geometry": { "type": "MultiLineString", "coordinates": [ [ [ 32.181117873355781, 29.410428718959146 ], [ 33.733122876092274, 26.308834865568716 ], [ 35.082692443689226, 25.153905266952883 ], [ 36.364783532906337, 23.802855705341461 ], [ 37.984267014022677, 22.125406600296664 ], [ 38.794008754580858, 20.806690798486315 ], [ 39.873664408658428, 18.711153818431637 ], [ 40.953320062735976, 16.976959963945944 ], [ 43.112631370891101, 15.031174178163941 ], [ 44.732114852007456, 13.461550839770759 ], [ 44.462200938488067, 13.264596444954215 ], [ 43.112631370891101, 14.116883752184995 ], [ 41.695583324914303, 15.681862864323499 ], [ 40.278535278937511, 17.363785327568653 ], [ 38.456616362681608, 20.617338899191239 ], [ 37.444439186983907, 21.687164494144362 ], [ 35.959912662627254, 23.308011772703242 ], [ 34.745300051789989, 24.602958538983017 ], [ 33.463208962572892, 26.731480916358329 ], [ 32.316074830115475, 28.228043925882535 ], [ 32.181117873355781, 29.233929472552937 ], [ 31.641290046317003, 30.054966385980009 ], [ 34.137993746371365, 26.308834865568716 ], [ 35.420084835588476, 24.970529578172311 ], [ 36.567218968045871, 24.111181332235045 ], [ 38.389137884301775, 22.187902204942656 ], [ 40.143578322177802, 19.794113119394698 ], [ 40.885841584356143, 17.556893414914946 ], [ 42.640282022232171, 15.226593332146088 ], [ 43.24758832765081, 14.313120725870979 ], [ 43.787416154689595, 13.461550839770759 ], [ 44.462200938488067, 13.133204639676219 ] ] ] } },
{ "type": "Feature", "properties": { "id": null, "route_name": null, "year": null, "company": null }, "geometry": { "type": "MultiLineString", "coordinates": [ [ [ 39.112409234750984, 37.542811539863237 ], [ 43.378163873169115, 35.455782812069685 ], [ 47.36571712212519, 31.512726387600111 ], [ 50.054997220258358, 29.192326145081843 ], [ 52.187874539467423, 29.192326145081843 ], [ 53.486147690290338, 26.569664789636963 ], [ 55.89722639896145, 26.40366429802344 ], [ 57.010031956809669, 27.313679961229546 ], [ 59.142909276018734, 26.070946994703895 ], [ 59.513844461968134, 25.486415786972906 ], [ 63.13046252497481, 24.562113852384577 ], [ 65.912476419595322, 24.562113852384577 ], [ 66.932548180956189, 26.818214877707753 ], [ 69.436360686114668, 29.67690446031224 ], [ 71.383770412349037, 31.354477160869905 ], [ 74.165784306969556, 31.116603371762288 ], [ 79.173409317286485, 26.237424680712966 ], [ 78.153337555925646, 24.562113852384577 ], [ 75.556791254279815, 22.607529352919084 ], [ 73.052978749121337, 18.879312461402428 ], [ 73.052978749121337, 17.999596047427548 ], [ 75.649525050767167, 15.959822429274684 ], [ 80.008013485672649, 13.448543769936611 ], [ 85.757508867888376, 11.819813229700912 ], [ 88.910457948458301, 11.092728732326263 ], [ 93.547147772825852, 10.090049640043517 ], [ 96.700096853395777, 8.075596183659995 ], [ 99.389376951528931, 7.432398499679352 ], [ 96.329161667446357, 7.52434349822424 ], [ 93.4544139763385, 8.167399916737885 ], [ 90.85786767469267, 9.358844094615797 ], [ 88.261321373046854, 9.724646768103657 ], [ 86.035710257350445, 10.181336198767822 ], [ 82.419092194343776, 11.456504718055665 ], [ 79.451610706748525, 12.997169000005075 ], [ 78.060603759438294, 14.528330591336712 ] ] ] } },
{ "type": "Feature", "properties": { "id": null, "route_name": null, "year": null, "company": null }, "geometry": { "type": "MultiLineString", "coordinates": [ [ [ -81.228827012451916, 22.744051559071185 ], [ -79.687903690182736, 21.763590755938608 ], [ -77.472826414420794, 21.763590755938608 ], [ -76.413441630360737, 20.054323984586031 ], [ -75.354056846300651, 19.147065848054162 ], [ -73.331594985822377, 18.782746949960725 ], [ -72.175902494120493, 18.873901204226698 ], [ -74.96882601573337, 19.601334401430645 ], [ -75.931903092151629, 19.601334401430645 ], [ -76.606057045644377, 19.601334401430645 ], [ -77.858057244988075, 19.963829573640226 ], [ -78.62851890612265, 20.235156175069172 ], [ -79.880519105466377, 20.506009964122786 ], [ -78.724826613764492, 19.328925152985324 ], [ -76.702364753286204, 18.69154334851406 ], [ -75.450364553942492, 18.69154334851406 ], [ -74.198364354598795, 18.69154334851406 ], [ -76.50974933800255, 18.326239570144971 ], [ -77.472826414420794, 17.776838530161211 ], [ -76.702364753286204, 19.238020680778316 ], [ -74.487287477524262, 19.238020680778316 ], [ -74.198364354598795, 19.782685099392573 ] ] ] } },
{ "type": "Feature", "properties": { "id": null, "route_name": null, "year": null, "company": null }, "geometry": { "type": "MultiLineString", "coordinates": [ [ [ -48.676821829515546, -0.518268605522418 ], [ -47.810052460739136, 0.444796935395507 ], [ -45.883898307902662, 0.733704472887105 ], [ -45.402359769693547, 0.733704472887105 ] ] ] } },
{ "type": "Feature", "properties": { "id": null, "route_name": null, "year": null, "company": null }, "geometry": { "type": "MultiLineString", "coordinates": [ [ [ -49.158360367724661, -0.710872849701011 ], [ -48.869437244799187, 1.215171954453687 ], [ -47.810052460739136, 1.311456241323037 ], [ -46.26912913846995, 2.466501099232111 ], [ -44.63189810855895, 1.985327323316249 ] ] ] } },
{ "type": "Feature", "properties": { "id": null, "route_name": null, "year": null, "company": null }, "geometry": { "type": "MultiLineString", "coordinates": [ [ [ -45.59497518497718, -19.489058443742735 ], [ -44.824513523842604, -19.489058443742735 ], [ -44.150359570349842, -19.398243241360966 ], [ -43.861436447424367, -19.398243241360966 ], [ -43.379897909215252, -19.034477297139297 ], [ -43.283590201573439, -18.669912820700485 ] ] ] } },
{ "type": "Feature", "properties": { "id": null, "route_name": null, "year": null, "company": null }, "geometry": { "type": "MultiLineString", "coordinates": [ [ [ -45.691282892619022, -19.851808126931118 ], [ -43.765128739782547, -20.574813098434056 ], [ -42.513128540438842, -20.574813098434056 ], [ -42.70574395572249, -18.669912820700485 ], [ -41.16482063345331, -19.851808126931118 ], [ -39.720205018825965, -19.851808126931118 ], [ -38.660820234765907, -19.034477297139297 ], [ -37.69774315834767, -17.84679090397017 ], [ -37.119896912496728, -15.818928261892687 ], [ -37.119896912496728, -14.331081865943331 ], [ -37.312512327780368, -13.021033096646658 ], [ -37.79405086598949, -11.60969947332781 ], [ -38.949743357691361, -10.854000349681039 ], [ -39.238666480616835, -10.854000349681039 ], [ -36.253127543720304, -9.621959775636723 ], [ -35.097435052018419, -8.290121817368799 ], [ -35.001127344376599, -6.092608265450797 ], [ -35.193742759660253, -4.462373538081759 ] ] ] } },
{ "type": "Feature", "properties": { "id": null, "route_name": null, "year": null, "company": null }, "geometry": { "type": "MultiLineString", "coordinates": [ [ [ -54.682520865069407, -29.645220393915512 ], [ -52.169472965760079, -28.940751857083121 ], [ -52.169472965760079, -28.310506944946095 ], [ -52.169472965760079, -27.676505351156322 ] ] ] } },
{ "type": "Feature", "properties": { "id": null, "route_name": null, "year": null, "company": null }, "geometry": { "type": "MultiLineString", "coordinates": [ [ [ -71.825097606786628, -25.590743339426677 ], [ -74.427897216785567, -24.452171750238819 ], [ -74.607400638164819, -22.97309074686731 ], [ -74.607400638164819, -19.713411144319174 ], [ -73.62013182057899, -17.330746082666632 ], [ -72.004601028165851, -15.436486391424623 ], [ -71.196835631959303, -14.656421590357041 ], [ -73.799635241958242, -14.221839112092962 ], [ -75.504917745061007, -13.175471047733149 ], [ -76.851193405405297, -11.333718471262154 ], [ -76.940945116094895, -8.859794269076968 ], [ -77.120448537474118, -6.547473413979984 ], [ -77.030696826784521, -5.655049426387637 ], [ -77.479455380232622, -4.582339966716558 ], [ -78.55647590850802, -3.328834519312845 ], [ -81.069523807817362, -1.35604460203739 ], [ -83.941578549885179, 0.708100102317584 ], [ -85.826364474367168, 2.502356442927013 ], [ -87.711150398849185, 5.277974917661367 ], [ -88.159908952297272, 9.106198342285319 ], [ -88.159908952297272, 11.138243919578603 ] ] ] } },
{ "type": "Feature", "properties": { "id": null, "route_name": null, "year": null, "company": null }, "geometry": { "type": "MultiLineString", "coordinates": [ [ [ -77.928213933680709, 18.337157975102883 ], [ -75.23566261299213, 16.453025525725472 ], [ -72.722614713682816, 16.280796220719363 ], [ -69.042794575408436, 16.280796220719363 ], [ -66.350243254719857, 16.280796220719363 ], [ -64.196202198169019, 15.244292591445461 ], [ -63.208933380583204, 13.767197870752108 ], [ -62.311416273687001, 11.929690758550425 ], [ -59.798368374377688, 9.371960173074763 ], [ -58.631596135412643, 7.596644418405233 ], [ -58.182837581964542, 5.813962413528909 ] ] ] } },
{ "type": "Feature", "properties": { "id": null, "route_name": null, "year": null, "company": null }, "geometry": { "type": "MultiLineString", "coordinates": [ [ [ -34.623998917663954, -4.291030084716395 ], [ -30.376692293753241, -2.170874141579038 ], [ -28.639157765789758, -1.012984605488305 ], [ -25.16408870986281, 1.110546386159323 ], [ -22.461257221919624, 5.157882462940864 ], [ -20.5306633019602, 9.560551621229447 ], [ -19.565366341980496, 12.779929955192586 ], [ -17.634772422021076, 14.842060473200533 ], [ -17.248653638029193, 14.842060473200533 ] ] ] } },
{ "type": "Feature", "properties": { "id": null, "route_name": null, "year": null, "company": null }, "geometry": { "type": "MultiLineString", "coordinates": [ [ [ -97.175241924349109, 19.816193995834524 ], [ -97.368301316345054, 22.337935424754281 ], [ -96.209944964369427, 22.516392723755153 ] ] ] } },
{ "type": "Feature", "properties": { "id": null, "route_name": null, "year": null, "company": null }, "geometry": { "type": "MultiLineString", "coordinates": [ [ [ -96.982182532353164, 19.634463147850738 ], [ -95.051588612393758, 20.179031702813081 ], [ -94.472410436405937, 20.360135405863463 ] ] ] } },
{ "type": "Feature", "properties": { "id": null, "route_name": null, "year": null, "company": null }, "geometry": { "type": "MultiLineString", "coordinates": [ [ [ -12.10172183584759, 6.486086463454476 ], [ -16.1221536596471, 6.676273947531542 ], [ -16.887950197513671, 7.246384942430566 ], [ -17.270848466446949, 9.141242501796182 ], [ -17.270848466446949, 10.085035026290681 ], [ -16.696501063047023, 12.151329567544515 ], [ -15.930704525180456, 12.151329567544515 ], [ -18.036645004313531, 11.213925304163569 ], [ -19.951136348979958, 10.838095885837914 ], [ -21.865627693646388, 10.838095885837914 ], [ -22.439975097046318, 11.589266606003882 ] ] ] } },
{ "type": "Feature", "properties": { "id": null, "route_name": null, "year": null, "company": null }, "geometry": { "type": "MultiLineString", "coordinates": [ [ [ -94.424849656504108, 17.698565683244016 ], [ -96.913688404570479, 19.33235202660849 ], [ -98.062383211370346, 21.485368305541861 ], [ -96.722239270103827, 23.431462486066202 ], [ -95.956442732237278, 25.349327519627256 ], [ -95.382095328837352, 27.066905657652903 ], [ -93.659053118637559, 29.093700777727516 ], [ -92.510358311837706, 30.092532437887794 ], [ -89.638621294838032, 31.081374606121969 ], [ -84.85239293317197, 31.081374606121969 ], [ -81.023410243839109, 31.081374606121969 ], [ -79.683266302572619, 32.867680634618289 ] ] ] } },
{ "type": "Feature", "properties": { "id": null, "route_name": null, "year": null, "company": null }, "geometry": { "type": "MultiLineString", "coordinates": [ [ [ 108.490975305920159, 11.533411712921371 ], [ 106.042209470351807, 13.260656429375707 ], [ 105.634081831090455, 15.041418475823244 ], [ 106.042209470351807, 16.285798895954141 ], [ 107.130549841715521, 17.197720115408035 ], [ 107.47065620776668, 18.169812642028187 ], [ 108.218890213079234, 20.352913714615497 ] ] ] } },
{ "type": "Feature", "properties": { "id": null, "route_name": null, "year": null, "company": null }, "geometry": { "type": "MultiLineString", "coordinates": [ [ [ 120.734804483761891, 28.098493784435199 ], [ 117.94593228214238, 27.376040945205613 ], [ 117.129677003619605, 27.376040945205613 ], [ 118.21801737498329, 29.824321962159026 ], [ 119.646464112398178, 30.412694421480598 ], [ 120.734804483761891, 30.412694421480598 ], [ 120.462719390920938, 28.398094586448995 ], [ 120.734804483761891, 28.338241809982677 ] ] ] } },
{ "type": "Feature", "properties": { "id": null, "route_name": null, "year": null, "company": null }, "geometry": { "type": "MultiLineString", "coordinates": [ [ [ 113.11642188421591, 20.989331552591146 ], [ 114.068719709159154, 22.065008932275116 ], [ 115.157060080522882, 23.069995611953129 ], [ 116.381442998307051, 23.069995611953129 ], [ 115.361123900153572, 21.812627603531045 ], [ 114.476847348420549, 22.128034138733469 ] ] ] } },
{ "type": "Feature", "properties": { "id": null, "route_name": null, "year": null, "company": null }, "geometry": { "type": "MultiLineString", "coordinates": [ [ [ 120.00698889289977, 28.944716057091533 ], [ 120.00698889289977, 30.007805225961064 ], [ 120.235961033124539, 30.73215545503313 ], [ 120.999201500540423, 31.124982736969265 ], [ 122.144062201664255, 31.840951386853408 ] ] ] } },
{ "type": "Feature", "properties": { "id": null, "route_name": null, "year": null, "company": null }, "geometry": { "type": "MultiLineString", "coordinates": [ [ [ 26.160266775355833, -32.181570844386414 ], [ 24.652172050276143, -31.632904977346087 ] ] ] } },
{ "type": "Feature", "properties": { "id": null, "route_name": null, "year": null, "company": null }, "geometry": { "type": "MultiLineString", "coordinates": [ [ [ -122.279227033525586, 37.942773819936988 ], [ -125.401425824069932, 35.269843061970029 ], [ -126.23401216821506, 34.92925202746347 ], [ -128.107331442541664, 33.726044329568673 ], [ -131.437676819122231, 32.681096021069493 ], [ -133.935435851557685, 31.090546683753541 ], [ -136.016901711920582, 30.733385771777307 ], [ -138.514660744356036, 29.834690843443354 ], [ -140.804273190755197, 28.379875470497101 ], [ -143.09388563715433, 27.460297674118461 ], [ -145.17535149751717, 27.460297674118461 ], [ -147.464963943916359, 26.159935016038567 ], [ -148.883278760807769, 25.795646257118165 ], [ -150.808134583731999, 25.247111238380743 ], [ -152.429065803036536, 24.696088547674012 ], [ -154.759154430786936, 23.679552446444518 ], [ -157.190551259743756, 22.9352317828127 ] ] ] } },
{ "type": "Feature", "properties": { "id": null, "route_name": null, "year": null, "company": null }, "geometry": { "type": "MultiLineString", "coordinates": [ [ [ -168.973514341773608, 4.203033533706232 ], [ -164.711847362037503, 7.231579132277535 ], [ -162.986886917858556, 8.337426326904412 ], [ -161.058989950835098, 9.440154506323156 ], [ -158.928156460967045, 11.236851998967383 ], [ -155.275299049764698, 14.205810370438119 ], [ -149.694544671538836, 19.161035316941703 ], [ -146.44756030602565, 22.292272996071254 ], [ -143.302044201934706, 27.174645610684092 ], [ -139.649186790732358, 32.880922736581454 ], [ -137.721289823708844, 36.05893747217376 ], [ -135.894861118107684, 39.034842789793643 ], [ -133.053749798283604, 41.739266972573901 ], [ -129.299424125658959, 44.983980861378384 ], [ -123.617201486010842, 48.122703985863417 ] ] ] } },
{ "type": "Feature", "properties": { "id": null, "route_name": null, "year": null, "company": null }, "geometry": { "type": "MultiLineString", "coordinates": [ [ [ -23.147505264331286, 13.777231315209814 ], [ -22.539129499272615, 8.556676878267618 ], [ -22.082847675478618, 5.840828377678212 ], [ -21.018190086625943, 2.656046596564166 ], [ -19.953532497773274, 0.071401372761878 ], [ -18.584687026391268, -2.51338913382569 ], [ -16.151183966156591, -5.850071224586749 ], [ -14.630244553509918, -6.757107881391073 ], [ -11.436271786951902, -7.963810101668015 ], [ -7.938111137864552, -9.467142065811924 ], [ -2.006447428542526, -11.560583238077685 ], [ -0.181320133366518, -15.405234849182282 ], [ 1.339619279280156, -18.604517588392085 ], [ 3.925216280779501, -22.167975218548001 ], [ 6.206625399749512, -25.093684671925384 ], [ 9.552692107572192, -28.085348192799991 ], [ 15.788543699423556, -30.341836514940351 ], [ 19.59089223104024, -31.90417061735322 ] ] ] } },
{ "type": "Feature", "properties": { "id": null, "route_name": null, "year": null, "company": null }, "geometry": { "type": "MultiLineString", "coordinates": [ [ [ -15.238620318568588, -6.001352420399888 ], [ -14.630244553509918, -1.905468504132445 ], [ -13.413493023392579, 1.288044416078692 ], [ -11.740459669481234, 6.747881172243718 ], [ -11.740459669481234, 6.294552765557787 ] ] ] } },
{ "type": "Feature", "properties": { "id": null, "route_name": null, "year": null, "company": null }, "geometry": { "type": "MultiLineString", "coordinates": [ [ [ 26.435119587950265, -29.815388597819783 ], [ 26.435119587950265, -27.412340774014663 ], [ 25.978837764156268, -26.054020958154556 ] ] ] } },
{ "type": "Feature", "properties": { "id": null, "route_name": null, "year": null, "company": null }, "geometry": { "type": "MultiLineString", "coordinates": [ [ [ 18.982516465981568, -28.487144619858238 ], [ 23.545334703921593, -30.995932818931632 ] ] ] } },
{ "type": "Feature", "properties": { "id": null, "route_name": null, "year": null, "company": null }, "geometry": { "type": "MultiLineString", "coordinates": [ [ [ 151.559326860741635, -32.85714034122833 ], [ 157.318133822822915, -36.119601997860364 ], [ 163.436866220034318, -39.11244688001014 ], [ 170.635374922635947, -42.250376190072451 ], [ 169.375635899680645, -42.250376190072451 ], [ 165.236493395684704, -41.311015457564608 ], [ 158.037984693083132, -38.128241714918538 ], [ 153.538916753957068, -35.242542738609494 ], [ 151.739289578306682, -33.00818478385699 ] ] ] } },
{ "type": "Feature", "properties": { "id": null, "route_name": null, "year": null, "company": null }, "geometry": { "type": "MultiLineString", "coordinates": [ [ [ 115.386820630168629, -6.910868212683353 ], [ 120.7857021571198, -8.693760446381427 ], [ 126.184583684071043, -9.936860962791123 ], [ 132.303316081282389, -10.645126879428188 ] ] ] } },
{ "type": "Feature", "properties": { "id": null, "route_name": null, "year": null, "company": null }, "geometry": { "type": "MultiLineString", "coordinates": [ [ [ 115.746746065298709, -7.089489372486413 ], [ 106.388684751916628, -3.865384955201236 ], [ 105.128945728961341, -0.628978866196174 ], [ 104.049169423571101, 1.890143615712375 ], [ 103.149355835745908, 3.507957322457046 ], [ 100.269952354705268, 4.943707050004855 ], [ 99.370138766880061, 7.805004428500025 ], [ 99.370138766880061, 7.805004428500025 ] ] ] } },
{ "type": "Feature", "properties": { "id": null, "route_name": null, "year": null, "company": null }, "geometry": { "type": "MultiLineString", "coordinates": [ [ [ 95.916139464715059, -13.369757185678198 ], [ 98.679610695530585, -16.890456008284644 ], [ 101.553620775578707, -20.553832398128542 ], [ 104.317092006394219, -24.232306373844686 ], [ 107.964874031070678, -27.709685269791901 ], [ 113.602355341934341, -31.079671247229882 ], [ 116.807981969680327, -31.174295106743159 ] ] ] } },
{ "type": "Feature", "properties": { "id": null, "route_name": null, "year": null, "company": null }, "geometry": { "type": "MultiLineString", "coordinates": [ [ [ 34.010129031118488, -25.269695422108374 ], [ 39.130252156702284, -24.827929155404007 ], [ 43.518929121488405, -24.717239666596438 ], [ 48.029513779740789, -23.493225676217737 ], [ 52.540098437993194, -21.69248918447742 ], [ 55.953513855049046, -19.409694030745364 ], [ 58.635483111307231, -17.559900988437775 ], [ 58.513575417840954, -15.808346950874643 ], [ 57.904036950509543, -12.855876881778824 ], [ 57.538313870110699, -10.588096998024966 ], [ 57.416406176644422, -7.820605635669487 ], [ 56.684960015846727, -5.398842718579894 ], [ 56.197329241981606, -3.454232275752647 ], [ 56.075421548515337, -3.210829371596735 ], [ 52.052467664128066, -3.940846517175341 ], [ 46.200898377746569, -4.670223472448741 ], [ 43.275113734555838, -4.670223472448741 ], [ 41.202682945629064, -4.670223472448741 ], [ 39.983606010966255, -4.305622376786215 ] ] ] } },
{ "type": "Feature", "properties": { "id": null, "route_name": null, "year": null, "company": null }, "geometry": { "type": "MultiLineString", "coordinates": [ [ [ 58.635483111307231, -17.559900988437775 ], [ 62.902252382627069, -18.255904872840357 ], [ 66.437575493149225, -18.140094665970345 ], [ 68.997637055941112, -18.024207716633331 ], [ 70.460529377536488, -16.510888592815359 ], [ 71.923421699131865, -16.977842148447667 ], [ 74.727298648856305, -17.676090656921144 ], [ 77.896898678979639, -17.443636710447525 ], [ 83.26083719149598, -16.627734101169498 ], [ 87.405698769349542, -16.159929790944073 ], [ 91.550560347203088, -15.22102185624952 ], [ 95.329698844657813, -14.04150143532709 ], [ 95.817329618522933, -13.449422555543212 ] ] ] } },
{ "type": "Feature", "properties": { "id": null, "route_name": null, "year": null, "company": null }, "geometry": { "type": "MultiLineString", "coordinates": [ [ [ 114.018523720135349, 22.669571652563185 ], [ 114.572965633845342, 19.305410683782785 ], [ 115.404628504410368, 16.93435936896795 ], [ 115.820459939692867, 14.398839729364314 ], [ 115.820459939692867, 12.105380139254375 ], [ 115.543238982837849, 9.655443641444924 ], [ 114.711576112272823, 7.187556541197939 ], [ 114.572965633845342, 5.120495634904225 ], [ 114.295744676990353, 3.876869402907762 ], [ 113.048250371142814, 5.672477941394556 ], [ 112.077977022150307, 5.672477941394556 ], [ 110.414651281020255, 4.70619314004328 ], [ 108.474104583035242, 3.461891352070728 ], [ 106.256336928195211, 3.461891352070728 ], [ 104.731621665492682, 3.461891352070728 ], [ 103.345516881217662, 3.461891352070728 ] ] ] } },
{ "type": "Feature", "properties": { "id": null, "route_name": null, "year": null, "company": null }, "geometry": { "type": "MultiLineString", "coordinates": [ [ [ 104.731621665492682, 3.323523840643476 ], [ 106.810778841905204, 5.534529856734776 ], [ 107.781052190897725, 7.599929510202797 ], [ 107.781052190897725, 8.971531589205204 ], [ 107.919662669325248, 11.29099900025836 ] ] ] } },
{ "type": "Feature", "properties": { "id": null, "route_name": null, "year": null, "company": null }, "geometry": { "type": "MultiLineString", "coordinates": [ [ [ 103.206906402790125, 3.323523840643476 ], [ 105.840505492912669, 1.384707698521439 ], [ 107.365220755615198, -0.417090021279531 ], [ 109.305767453600268, -1.802900893733935 ], [ 111.384924630012776, -2.218475388148335 ], [ 114.018523720135349, -3.602758205739067 ], [ 115.12740754755535, -5.674990113303435 ], [ 115.266018025982873, -6.777315853800352 ], [ 116.929343767112897, -8.425964972758264 ], [ 119.008500943525434, -10.340453187823886 ], [ 121.226268598365451, -11.293474667835325 ], [ 123.721257210060514, -12.784608974948634 ], [ 124.691530559053035, -13.324719124097587 ], [ 124.830141037480544, -14.132614311692205 ] ] ] } },
{ "type": "Feature", "properties": { "id": null, "route_name": null, "year": null, "company": null }, "geometry": { "type": "MultiLineString", "coordinates": [ [ [ 115.543238982837849, -6.639654425383586 ], [ 118.86989046509791, -6.777315853800352 ], [ 122.196541947358, -7.465017926880679 ], [ 125.661803908045556, -9.247748425624264 ], [ 128.156792519740577, -9.384530619156001 ], [ 131.899275437283166, -10.340453187823886 ] ] ] } },
{ "type": "Feature", "properties": { "id": null, "route_name": null, "year": null, "company": null }, "geometry": { "type": "MultiLineString", "coordinates": [ [ [ 115.404628504410368, -6.501954484955821 ], [ 116.929343767112897, -5.261051819634597 ], [ 117.761006637677923, -4.432370045346444 ], [ 118.45405902981544, -3.187657558370609 ] ] ] } },
{ "type": "Feature", "properties": { "id": null, "route_name": null, "year": null, "company": null }, "geometry": { "type": "MultiLineString", "coordinates": [ [ [ 116.236291374975394, -31.06837260152194 ], [ 113.879913241707825, -33.181144899667444 ], [ 115.266018025982873, -35.357301192534791 ], [ 117.483785680822919, -36.813437659688674 ], [ 120.81043716308298, -36.924327479047015 ], [ 125.107361994335562, -35.470267089085525 ], [ 128.849844911878137, -34.562121279736594 ], [ 133.285380221558171, -33.8744261477379 ], [ 137.305084095955777, -33.8744261477379 ] ] ] } },
{ "type": "Feature", "properties": { "id": null, "route_name": null, "year": null, "company": null }, "geometry": { "type": "MultiLineString", "coordinates": [ [ [ 154.631393899393601, -27.687173546140176 ], [ 160.175813036493679, -27.932375578680222 ], [ 165.720232173593814, -27.318336773902054 ], [ 169.185494134281299, -26.824642188198592 ], [ 172.789366573396421, -19.699763104540811 ], [ 175.838797098801422, -15.071535938592584 ], [ 179.581280016344039, -11.972287244843692 ] ] ] } },
{ "type": "Feature", "properties": { "id": null, "route_name": null, "year": null, "company": null }, "geometry": { "type": "MultiLineString", "coordinates": [ [ [ 168.63105222057132, -26.948269455237661 ], [ 172.234924659686413, -30.472891151733737 ], [ 173.898250400816437, -32.832427132234855 ], [ 173.898250400816437, -34.676190247518178 ], [ 174.175471357671455, -36.256579327702539 ] ] ] } },
{ "type": "Feature", "properties": { "id": null, "route_name": null, "year": null, "company": null }, "geometry": { "type": "MultiLineString", "coordinates": [ [ [ 146.150085974410956, -37.583511209206989 ], [ 147.544911534008094, -41.872107156137012 ], [ 147.196205144108831, -42.260409223875413 ] ] ] } },
{ "type": "Feature", "properties": { "id": null, "route_name": null, "year": null, "company": null }, "geometry": { "type": "MultiLineString", "coordinates": [ [ [ -97.571849274825041, 18.781484841742678 ], [ -97.684557923643084, 15.334086075859718 ], [ -95.993928191372845, 11.608154740664791 ], [ -92.274542780378326, 10.391161327333464 ], [ -89.231409262291919, 10.391161327333464 ], [ -87.428070881203681, 10.612802422723606 ], [ -82.807016279665035, 7.161327726990888 ], [ -78.52408762458046, 8.166631007975489 ], [ -77.847835731672362, 9.836377282718935 ], [ -77.96054438049039, 12.379885357309302 ], [ -78.97492221985253, 15.551365007671647 ], [ -78.749504922216488, 17.603689239337992 ], [ -77.50970978521832, 18.567935533239218 ] ] ] } },
{ "type": "Feature", "properties": { "id": null, "route_name": null, "year": null, "company": null }, "geometry": { "type": "MultiLineString", "coordinates": [ [ [ -79.956144931687334, 3.870697089196717 ], [ -80.189138755160585, 6.42308086366342 ], [ -79.606654196477464, 7.810238901182195 ] ] ] } },
{ "type": "Feature", "properties": { "id": null, "route_name": null, "year": null, "company": null }, "geometry": { "type": "MultiLineString", "coordinates": [ [ [ -77.043722138271818, 5.148169424879847 ], [ -78.674678902584532, 8.38691190235347 ] ] ] } },
{ "type": "Feature", "properties": { "id": null, "route_name": null, "year": null, "company": null }, "geometry": { "type": "MultiLineString", "coordinates": [ [ [ -78.674678902584532, 8.38691190235347 ], [ -77.043722138271818, 7.579343261270092 ], [ -76.461237579588712, 6.42308086366342 ], [ -76.461237579588712, 5.72802979767267 ], [ -76.461237579588712, 5.032131958445782 ] ] ] } },
{ "type": "Feature", "properties": { "id": null, "route_name": null, "year": null, "company": null }, "geometry": { "type": "MultiLineString", "coordinates": [ [ [ -77.393212873481687, -6.017499755371674 ], [ -78.674678902584532, -7.405847350356511 ], [ -81.470604784263429, -6.480717226861717 ], [ -83.1015615485761, -4.509470097226464 ], [ -83.1015615485761, -2.881960178270654 ], [ -81.587101696000047, -1.1356481599046 ] ] ] } },
{ "type": "Feature", "properties": { "id": null, "route_name": null, "year": null, "company": null }, "geometry": { "type": "MultiLineString", "coordinates": [ [ [ -80.888120225580323, -1.717949611718354 ], [ -80.655126402107058, -3.579826290798653 ], [ -79.723151108214083, -4.973861630084892 ], [ -78.90767272605774, -5.553887181627862 ], [ -77.509709785218291, -5.901632481397694 ] ] ] } },
{ "type": "Feature", "properties": { "id": null, "route_name": null, "year": null, "company": null }, "geometry": { "type": "MultiLineString", "coordinates": [ [ [ -51.763892291425094, 3.986920207746123 ], [ -48.61847567453632, 3.986920207746123 ], [ -47.104015821960253, 2.35851847112599 ], [ -45.82254979285743, 0.378734568017003 ], [ -45.356562145910942, -1.1356481599046 ] ] ] } },
{ "type": "Feature", "properties": { "id": null, "route_name": null, "year": null, "company": null }, "geometry": { "type": "MultiLineString", "coordinates": [ [ [ -34.05636170745872, -4.625597013613197 ], [ -31.027442002306572, -6.13334233482516 ], [ -30.328460531886844, -9.02002142536251 ], [ -31.027442002306572, -12.22558488755152 ], [ -32.192411119672784, -14.605075722439869 ], [ -32.774895678355882, -16.736102409651043 ], [ -34.988337001351688, -18.180752654286863 ], [ -36.852287589137617, -20.051886570821985 ], [ -39.764710382553147, -20.161283527938973 ], [ -41.162673323392596, -20.707111893954771 ], [ -41.512164058602444, -20.161283527938973 ], [ -42.327642440758801, -19.723239335975101 ] ] ] } },
{ "type": "Feature", "properties": { "id": null, "route_name": null, "year": null, "company": null }, "geometry": { "type": "MultiLineString", "coordinates": [ [ [ -42.642612471897877, -19.394700260077141 ], [ -41.314927368359903, -20.416071958651866 ], [ -40.95283143103137, -22.159166104994707 ], [ -41.013180753919457, -23.936100198738608 ], [ -42.099468565905063, -25.743278039780677 ], [ -42.823660440562151, -26.771579349462183 ], [ -44.272044189876297, -28.37633296574576 ], [ -45.720427939190436, -29.169795454837953 ], [ -47.711955594497397, -30.21826011372119 ], [ -50.125928510020991, -30.530653812423772 ], [ -51.876058873775584, -30.842046206528568 ], [ -53.686538560418278, -30.270395008192711 ], [ -55.255620955508604, -29.747805493774472 ] ] ] } },
{ "type": "Feature", "properties": { "id": null, "route_name": null, "year": null, "company": null }, "geometry": { "type": "MultiLineString", "coordinates": [ [ [ -52.358853456880304, -27.790653560745838 ], [ -51.272565644894676, -29.169795454837953 ], [ -49.462085958252004, -29.01158654652415 ], [ -48.01370220893785, -27.844028899442147 ], [ -46.867065074064143, -26.609823155026167 ], [ -46.203222522295164, -24.925107577673916 ], [ -45.599729293414271, -23.272504654371733 ], [ -45.599729293414271, -21.374523884966116 ], [ -45.599729293414271, -20.359503145660316 ], [ -45.720427939190436, -19.394700260077141 ] ] ] } },
{ "type": "Feature", "properties": { "id": null, "route_name": null, "year": null, "company": null }, "geometry": { "type": "MultiLineString", "coordinates": [ [ [ -11.794637432867949, 6.646520021679541 ], [ -10.761408125998313, 2.785769100903469 ], [ -8.307488522182926, 1.882452932459191 ], [ -5.336954264932722, 1.882452932459191 ], [ -1.978959017606402, 2.527739635998276 ], [ -0.558268720660652, 4.203780966516288 ], [ 1.895650883154735, 5.876226618000461 ] ] ] } },
{ "type": "Feature", "properties": { "id": null, "route_name": null, "year": null, "company": null }, "geometry": { "type": "MultiLineString", "coordinates": [ [ [ 7.44925840757903, 5.233494282266193 ], [ 7.061797417502916, 2.656761108562483 ], [ 7.320104744220326, 0.720389741799697 ], [ 8.869948704524781, -1.604147602850607 ], [ 10.807253654905349, -4.054887722466802 ], [ 12.744558605285919, -4.956160151993863 ], [ 11.453021971698872, -6.113104164357693 ], [ 12.48625127856851, -7.651732615496567 ], [ 13.906941575514258, -8.291257542751701 ] ] ] } },
{ "type": "Feature", "properties": { "id": null, "route_name": null, "year": null, "company": null }, "geometry": { "type": "MultiLineString", "coordinates": [ [ [ 13.519480585438146, -8.035567837304761 ], [ 12.098790288492392, -8.802133458694779 ], [ 12.098790288492392, -10.965023458182403 ] ] ] } },
{ "type": "Feature", "properties": { "id": null, "route_name": null, "year": null, "company": null }, "geometry": { "type": "MultiLineString", "coordinates": [ [ [ 12.098790288492392, -10.965023458182403 ], [ 10.678099991546643, -13.614835683875707 ], [ 10.032331674753122, -15.738668241897379 ], [ 10.54894632818794, -18.943533903625358 ], [ 13.002865932003328, -22.327191108807941 ], [ 13.648634248796848, -24.930048291731211 ], [ 15.198478209101305, -27.364446657982509 ], [ 17.394090486199286, -30.082310445566659 ], [ 19.073088109862439, -31.303941784921722 ] ] ] } },
{ "type": "Feature", "properties": { "id": null, "route_name": null, "year": null, "company": null }, "geometry": { "type": "MultiLineString", "coordinates": [ [ [ 34.442374049548292, -21.728566544208899 ], [ 36.508832663287556, -21.36818683932556 ], [ 36.767139990004956, -20.039281611841847 ], [ 38.058676623592014, -17.840546423242763 ], [ 40.125135237331286, -14.991450261862925 ], [ 41.158364544200921, -12.35635603985782 ], [ 41.158364544200921, -10.965023458182403 ], [ 42.708208504505372, -9.312304994661359 ], [ 42.708208504505372, -7.523709867187158 ], [ 42.320747514429257, -6.498220313894382 ], [ 40.3834425640487, -5.084818285629287 ], [ 40.254288900689986, -5.084818285629287 ] ] ] } },
{ "type": "Feature", "properties": { "id": null, "route_name": null, "year": null, "company": null }, "geometry": { "type": "MultiLineString", "coordinates": [ [ [ 40.254288900689986, -5.084818285629287 ], [ 41.287518207559621, -8.163433150546902 ], [ 41.416671870918336, -9.567114290355757 ], [ 41.287518207559621, -11.598310311082104 ] ] ] } },
{ "type": "Feature", "properties": { "id": null, "route_name": null, "year": null, "company": null }, "geometry": { "type": "MultiLineString", "coordinates": [ [ [ 41.287518207559621, -12.35635603985782 ], [ 45.807896425114286, -13.740326742920345 ] ] ] } },
{ "type": "Feature", "properties": { "id": null, "route_name": null, "year": null, "company": null }, "geometry": { "type": "MultiLineString", "coordinates": [ [ [ 50.658844188984517, 12.791769882947518 ], [ 52.700949269022999, 11.703263768271771 ], [ 52.700949269022999, 8.229786190798146 ], [ 50.844490105351639, 5.095521110191418 ], [ 48.431093192578906, 2.873295247904297 ], [ 46.388988112540417, 0.832365972232262 ], [ 43.233007534299141, -1.024009392290633 ], [ 39.705735123323578, -4.176341360965099 ] ] ] } },
{ "type": "Feature", "properties": { "id": null, "route_name": null, "year": null, "company": null }, "geometry": { "type": "MultiLineString", "coordinates": [ [ [ -44.040277701571853, -1.349057972905927 ], [ -42.596312840013667, -0.167756605551116 ], [ -40.758539379848699, -0.167756605551116 ], [ -38.920765919683717, -1.217821401007742 ], [ -38.920765919683717, -2.923148102545677 ], [ -37.870609656732313, -2.136304680002851 ], [ -35.63902759796057, -2.136304680002851 ], [ -34.982679933615927, -3.185314014898478 ], [ -34.982679933615927, -4.364155845836879 ] ] ] } },
{ "type": "Feature", "properties": { "id": null, "route_name": null, "year": null, "company": null }, "geometry": { "type": "MultiLineString", "coordinates": [ [ [ -34.982679933615927, -4.364155845836879 ], [ -33.801254137795588, -5.671791200414295 ], [ -33.144906473450959, -8.40740302824929 ], [ -34.457601802140225, -10.350027232999301 ], [ -36.951722926649829, -10.608187253499363 ], [ -38.526957321076949, -10.608187253499363 ], [ -38.395687788208022, -13.432483576802865 ], [ -39.183304985421579, -16.978703030453392 ], [ -40.889808912717626, -18.852169292492302 ], [ -41.808695642800103, -18.727895758838716 ], [ -43.777738635834005, -18.727895758838716 ] ] ] } },
{ "type": "Feature", "properties": { "id": null, "route_name": null, "year": null, "company": null }, "geometry": { "type": "MultiLineString", "coordinates": [ [ [ -72.788305399866744, -31.076308926036649 ], [ -73.838461662818148, -29.831599529169463 ], [ -74.101000728555988, -28.109046152318626 ], [ -73.707192129949235, -26.710707177563297 ], [ -72.26322726839102, -25.532117251668435 ] ] ] } },
{ "type": "Feature", "properties": { "id": null, "route_name": null, "year": null, "company": null }, "geometry": { "type": "MultiLineString", "coordinates": [ [ [ -53.885492666741321, 5.207111231224532 ], [ -52.441527805183142, 5.207111231224532 ], [ -51.391371542231738, 4.029542314839381 ] ] ] } },
{ "type": "Feature", "properties": { "id": null, "route_name": null, "year": null, "company": null }, "geometry": { "type": "MultiLineString", "coordinates": [ [ [ -54.14803173247919, 4.814808543959748 ], [ -54.804379396823819, 7.294818086222739 ], [ -56.248344258382005, 9.113703520150038 ], [ -57.954848185678053, 9.631769874723961 ], [ -59.136273981498377, 10.665480471189142 ] ] ] } }
]
}
