{
"type": "FeatureCollection",
"name": "top10_hyperscalers",
"crs": { "type": "name", "properties": { "name": "urn:ogc:def:crs:OGC:1.3:CRS84" } },
"features": [
{ "type": "Feature", "properties": { "rank": 1, "company": "Amazon Web Services (AWS)", "hq_city": "Seattle", "hq_country": "USA", "ceo": "Matt Garman", "founded": 2006, "datacenter_note": "Operates 39 announced infrastructure regions and 123 Availability Zones (AWS's own terminology, not an equivalent 'building' count); exact physical facility count not publicly disclosed.", "source_url": "https://datacentremagazine.com/top10/top-10-hyperscalers" }, "geometry": { "type": "Point", "coordinates": [ -122.3321, 47.6062 ] } },
{ "type": "Feature", "properties": { "rank": 2, "company": "Microsoft Azure", "hq_city": "Redmond", "hq_country": "USA", "ceo": "Satya Nadella", "founded": 1975, "datacenter_note": "Operates over 60 announced Azure regions worldwide (Microsoft's own figure); underlying physical data center count not publicly disclosed.", "source_url": "https://datacentremagazine.com/top10/top-10-hyperscalers" }, "geometry": { "type": "Point", "coordinates": [ -122.1215, 47.674 ] } },
{ "type": "Feature", "properties": { "rank": 3, "company": "Google Cloud", "hq_city": "Mountain View", "hq_country": "USA", "ceo": "Thomas Kurian", "founded": 1998, "datacenter_note": "Google discloses roughly 35 major data center campuses globally; this is a campus count, not individual building count.", "source_url": "https://datacentremagazine.com/top10/top-10-hyperscalers" }, "geometry": { "type": "Point", "coordinates": [ -122.0954, 37.4220 ] } },
{ "type": "Feature", "properties": { "rank": 4, "company": "Meta", "hq_city": "Menlo Park", "hq_country": "USA", "ceo": "Mark Zuckerberg", "founded": 2004, "datacenter_note": "Meta lists around 21 major operating data center sites globally; count grows with recent AI-driven expansion.", "source_url": "https://datacentremagazine.com/top10/top-10-hyperscalers" }, "geometry": { "type": "Point", "coordinates": [ -122.1484, 37.4845 ] } },
{ "type": "Feature", "properties": { "rank": 5, "company": "Alibaba Cloud", "hq_city": "Hangzhou", "hq_country": "China", "ceo": "Eddie Wu", "founded": 1999, "datacenter_note": "Operates in more than 25 regions globally (Alibaba's own figure); physical facility count not independently verified here.", "source_url": "https://datacentremagazine.com/top10/top-10-hyperscalers" }, "geometry": { "type": "Point", "coordinates": [ 120.1551, 30.2741 ] } },
{ "type": "Feature", "properties": { "rank": 6, "company": "Tencent", "hq_city": "Shenzhen", "hq_country": "China", "ceo": "Ma Huateng", "founded": 1998, "datacenter_note": "No independently verified public count of physical data centers found; Tencent Cloud figures are typically reported as regions/zones, not buildings.", "source_url": "https://datacentremagazine.com/top10/top-10-hyperscalers" }, "geometry": { "type": "Point", "coordinates": [ 114.0579, 22.5431 ] } },
{ "type": "Feature", "properties": { "rank": 7, "company": "Apple", "hq_city": "Cupertino", "hq_country": "USA", "ceo": "Tim Cook", "founded": 1976, "datacenter_note": "Apple discloses a small number of large flagship data centers (historically cited around 9-10 major sites); not a public cloud provider in the AWS/Azure/Google sense.", "source_url": "https://datacentremagazine.com/top10/top-10-hyperscalers" }, "geometry": { "type": "Point", "coordinates": [ -122.0090, 37.3349 ] } },
{ "type": "Feature", "properties": { "rank": 8, "company": "Oracle", "hq_city": "Austin", "hq_country": "USA", "ceo": "Clay Magouyrk and Mike Sicilia", "founded": 1977, "datacenter_note": "Oracle cites more than 45 cloud regions globally (OCI); physical facility count not independently verified here.", "source_url": "https://datacentremagazine.com/top10/top-10-hyperscalers" }, "geometry": { "type": "Point", "coordinates": [ -97.7217, 30.2429 ] } },
{ "type": "Feature", "properties": { "rank": 9, "company": "ByteDance", "hq_city": "Beijing", "hq_country": "China", "ceo": "Liang Rubo", "founded": 2012, "datacenter_note": "No independently verified public count of physical data centers found; expansion is described qualitatively (energy-efficient hyperscale campuses, custom chip development) rather than a disclosed facility total.", "source_url": "https://datacentremagazine.com/top10/top-10-hyperscalers" }, "geometry": { "type": "Point", "coordinates": [ 116.4074, 39.9042 ] } },
{ "type": "Feature", "properties": { "rank": 10, "company": "IBM", "hq_city": "Armonk", "hq_country": "USA", "ceo": "Arvind Krishna", "founded": 1911, "datacenter_note": "No independently verified public count of physical data centers found; IBM Cloud figures are typically reported as availability zones/regions rather than a building total.", "source_url": "https://datacentremagazine.com/top10/top-10-hyperscalers" }, "geometry": { "type": "Point", "coordinates": [ -73.7115, 41.1220 ] } }
]
}
